{"type": "FeatureCollection", "features": [{"type": "Feature", "properties": {"district": 5, "council_person": "Darryl Hurst"}, "geometry": {"type": "Polygon", "coordinates": [[[-91.14724652902007, 30.516350191645728], [-91.14757745440431, 30.51542234822579], [-91.14769968382355, 30.51508143865583], [-91.14782191240442, 30.514740528034913], [-91.14806636704454, 30.514058707248463], [-91.14841682263014, 30.513055797198998], [-91.1484635552334, 30.51292205875459], [-91.1485836017866, 30.51257460421266], [-91.1487415675636, 30.512117402525888], [-91.14881512500325, 30.511904502082892], [-91.14897233550543, 30.51144948467281], [-91.14910110698816, 30.511076779406505], [-91.14911959680704, 30.51102326413559], [-91.14912712463921, 30.51100218710178], [-91.14938198411227, 30.510288580801763], [-91.14975000660536, 30.509257304394502], [-91.15034279135641, 30.50922887419068], [-91.15100064935027, 30.509199998786], [-91.15216822116551, 30.50915605801685], [-91.15336090256392, 30.50911337241293], [-91.15521897374951, 30.50906692133447], [-91.1557701183236, 30.509046833333663], [-91.15673556205596, 30.509011680928424], [-91.15786547114662, 30.508972761548627], [-91.15852763366779, 30.50898021208005], [-91.15875307730431, 30.50897150618434], [-91.15910212769633, 30.508958650835957], [-91.1594650037277, 30.508945286829302], [-91.1642797025541, 30.508767968568684], [-91.16622092405368, 30.508710534419535], [-91.16736344658919, 30.508670833642146], [-91.1682568657886, 30.50863978984026], [-91.16906014930424, 30.508611877382446], [-91.16985726758087, 30.508572828195124], [-91.17198029417395, 30.50850175682131], [-91.1744488012768, 30.508419688002494], [-91.1771099247564, 30.50832427964317], [-91.1774261996518, 30.508317233155367], [-91.17749628639415, 30.508315672147003], [-91.17727356722742, 30.50469997702351], [-91.17713097585059, 30.501768843459036], [-91.17689217163607, 30.501397369872347], [-91.1767329687133, 30.501291234063622], [-91.17655607651461, 30.50118509875279], [-91.17633426714718, 30.501040957345612], [-91.17598767146261, 30.500815723156556], [-91.17590337336041, 30.50076094242771], [-91.17561153239971, 30.500794701076522], [-91.1751586268073, 30.501255856205827], [-91.17500826890854, 30.501202788338077], [-91.17455719287106, 30.501061274093892], [-91.17416803004419, 30.500919760623137], [-91.17404420522809, 30.50077824633376], [-91.17383193506458, 30.50070748976151], [-91.17381290493498, 30.500706130864103], [-91.17358428510916, 30.500689801018154], [-91.17341387023922, 30.500650473526076], [-91.1733543255548, 30.500636732562384], [-91.17317714134515, 30.50064605847478], [-91.17301823050215, 30.50065442213643], [-91.17273401621854, 30.500701791330155], [-91.17269982383365, 30.500707489667583], [-91.17264675628121, 30.500707490186873], [-91.17243448529769, 30.50083131489427], [-91.17223990409424, 30.5009020715688], [-91.17202763322847, 30.50102589561746], [-91.17190380857758, 30.5011850988843], [-91.17176229451029, 30.501273545020723], [-91.17147926685806, 30.501344302600014], [-91.1713377529386, 30.501415058789124], [-91.17135184544719, 30.501468052498986], [-91.17140851055332, 30.501538883415474], [-91.17144388905962, 30.501609640456675], [-91.17143504445842, 30.501653863280662], [-91.17142619984782, 30.501698087005487], [-91.17130237519456, 30.501839600191456], [-91.17112961961745, 30.501913638390757], [-91.17105472556723, 30.501945735841957], [-91.17084245451208, 30.50210493873128], [-91.17084245459378, 30.502387966892005], [-91.17066556213928, 30.502564859099582], [-91.17045329160409, 30.502635615725207], [-91.17016599589125, 30.502595763098657], [-91.17007023139996, 30.50258247845129], [-91.17001113155331, 30.501843010270115], [-91.16995907786489, 30.500565716025445], [-91.16988577946015, 30.498236325041074], [-91.16978527013421, 30.496464746399436], [-91.16966461924494, 30.494440820234594], [-91.16962783607677, 30.493730541463158], [-91.1695978489536, 30.49289536802067], [-91.16957537712658, 30.492532702894987], [-91.16953232524406, 30.49188266320387], [-91.16948645083156, 30.491376005316845], [-91.16947225160374, 30.491165804186636], [-91.16945805243604, 30.490955603041552], [-91.16879377330714, 30.490975666024664], [-91.16772184331437, 30.491010055981633], [-91.16590339108421, 30.49107733037661], [-91.1659499788419, 30.492052373667626], [-91.16503588900369, 30.492092063385606], [-91.16373692091051, 30.492204059890962], [-91.16349988462761, 30.49222449619135], [-91.16173667679071, 30.4923764955684], [-91.16131699144336, 30.492410246327967], [-91.16056967300557, 30.492470348051285], [-91.15982235470261, 30.492530446456186], [-91.15926068608063, 30.49257561133148], [-91.15920475481963, 30.492579409411075], [-91.15954519057483, 30.49160827621215], [-91.15940608922264, 30.49158275165379], [-91.15593380625853, 30.491688841763185], [-91.15608551415487, 30.49125458944162], [-91.15623722072353, 30.490820336889062], [-91.1548809319517, 30.490850942155074], [-91.1523672896591, 30.490943887031797], [-91.14881796287357, 30.49104886954224], [-91.14539836252114, 30.49116609834103], [-91.14113707360049, 30.491308235643878], [-91.13884705870412, 30.491382431201906], [-91.1381748396089, 30.491402865535537], [-91.13825700139046, 30.493279542704503], [-91.13833450173222, 30.495049652522045], [-91.13508604082571, 30.495163485134363], [-91.13509548731622, 30.495549011998758], [-91.13510585869993, 30.495978956163384], [-91.13256377893542, 30.496018116936874], [-91.13252035526263, 30.496069251448912], [-91.13248263478113, 30.496113669695646], [-91.13247693154698, 30.496120385043852], [-91.1324568512365, 30.49614040209206], [-91.13240471107679, 30.496192375784755], [-91.13233249050367, 30.49626436558257], [-91.1322401623097, 30.496204239672046], [-91.13223708470942, 30.496202421840938], [-91.13219959585193, 30.49618027415103], [-91.13219295581858, 30.496176863266435], [-91.13212796863897, 30.496143479105825], [-91.13205340909536, 30.496111850207292], [-91.1320052275183, 30.496095853626247], [-91.1319570459586, 30.496079856125448], [-91.13193111391902, 30.496073447164765], [-91.13188004841794, 30.496060825290314], [-91.13181662868764, 30.496049208427884], [-91.13173489471909, 30.496039394829108], [-91.1316525555634, 30.49603521366421], [-91.13157009972205, 30.49603668010992], [-91.13147108337371, 30.496037600749137], [-91.13024751415911, 30.496048973537995], [-91.13013064098152, 30.49605008045848], [-91.13005574425713, 30.49605372433305], [-91.12999861432961, 30.496060944198568], [-91.12998218491664, 30.496063019864508], [-91.12991604540363, 30.49607893259656], [-91.12984990482772, 30.496094845293854], [-91.12954706518708, 30.496225777892388], [-91.1288678020416, 30.496587342794104], [-91.12760048415748, 30.497272593506064], [-91.1260745489375, 30.495148331996454], [-91.12534972700091, 30.49413231586839], [-91.12490670857852, 30.493511303986146], [-91.12418323265346, 30.492497135893633], [-91.11878667632598, 30.484945193304792], [-91.11774997076769, 30.483482794051692], [-91.11662639786535, 30.481954541401826], [-91.11529604863573, 30.480096227184042], [-91.11519671551368, 30.479957002831306], [-91.11509738163082, 30.479817777494397], [-91.11489871469917, 30.479539327481497], [-91.11436027222602, 30.478782486070283], [-91.11382183796277, 30.478025643198638], [-91.11354534775637, 30.477636326192588], [-91.11317484531118, 30.477114627314602], [-91.11280434675902, 30.476592928219944], [-91.11075764509302, 30.477311108817123], [-91.10871091276387, 30.478029258496857], [-91.10654931768063, 30.47879429206648], [-91.10501172806967, 30.47933844903073], [-91.10319769763998, 30.47997851547967], [-91.10143267450272, 30.48048871032427], [-91.09250654839457, 30.48287597032698], [-91.08972536954505, 30.48362394724969], [-91.08808100936683, 30.484061095498255], [-91.08623943212308, 30.484562879059034], [-91.0850344980633, 30.484946550675318], [-91.08378129492844, 30.485286674742675], [-91.08378015280388, 30.485162639708985], [-91.08375969283077, 30.482940412081145], [-91.08367886307285, 30.4762532877237], [-91.08366973317227, 30.474672695961598], [-91.08366920538383, 30.474511136344418], [-91.08367433333113, 30.47443046368126], [-91.08368304848244, 30.474350022401772], [-91.08369533803233, 30.474269931554698], [-91.08371118188529, 30.47419031017503], [-91.08373055786338, 30.474111277293247], [-91.08375343650316, 30.474032950121842], [-91.08377978417586, 30.47395544586516], [-91.08383642196691, 30.473832472886052], [-91.08386857340213, 30.473772404906974], [-91.08390322474237, 30.47371338893991], [-91.08394032996367, 30.473655503376644], [-91.08397983888379, 30.473598823894775], [-91.08402170132064, 30.4735434261717], [-91.08406585980956, 30.473489383165123], [-91.08411225793212, 30.473436766030208], [-91.08435197542713, 30.47317278805934], [-91.0844382790654, 30.473061597584266], [-91.08447785114598, 30.47300402591256], [-91.0845149653161, 30.472945239022245], [-91.08454957243495, 30.472885315303305], [-91.08458162647945, 30.472824335857787], [-91.08461108247076, 30.47276238088742], [-91.08463790271118, 30.472699534215938], [-91.08466205158643, 30.472635879670758], [-91.08468349556068, 30.472571502887252], [-91.08470220630326, 30.47250649041262], [-91.08471815965181, 30.47244092789948], [-91.08473133352024, 30.47237490371056], [-91.08474170998821, 30.472308506216297], [-91.08476532657295, 30.471942513345045], [-91.08356520409613, 30.471974179001695], [-91.08236507980992, 30.472005834670824], [-91.0802949008535, 30.472060413151926], [-91.07563532842893, 30.472183141083153], [-91.0731255125963, 30.472249178122233], [-91.07229180958342, 30.47227110412786], [-91.07224523473724, 30.47227232834168], [-91.0721183758396, 30.472275664557475], [-91.07199151797724, 30.47227899975159], [-91.07173780222453, 30.47228567067706], [-91.07119819032675, 30.47229985659673], [-91.07059097964385, 30.472315817569044], [-91.070314293392, 30.472323089634024], [-91.06789048506161, 30.47238676724806], [-91.06740508965804, 30.47239987377676], [-91.06675347405123, 30.47241746526178], [-91.06233808921122, 30.472536582271996], [-91.05809718455865, 30.472621822064745], [-91.05636003612676, 30.472693854308805], [-91.0546228851714, 30.472765864642426], [-91.0488622904107, 30.47288670472237], [-91.04534431425317, 30.472992171698184], [-91.04486983932735, 30.473006389315124], [-91.04461604593115, 30.473032708465425], [-91.04411303619293, 30.473084870898273], [-91.0430212485368, 30.47319808211811], [-91.0428748480031, 30.473216694401458], [-91.04206571484016, 30.473319555121744], [-91.0400481857306, 30.473574293454778], [-91.03803064730701, 30.473829001002333], [-91.03625143825242, 30.47405230052096], [-91.03453920776043, 30.47427921482743], [-91.03290068801941, 30.474496338944732], [-91.03282696839558, 30.47450610785736], [-91.03267688611609, 30.475055030821796], [-91.03252680217379, 30.475603954428365], [-91.03248168653957, 30.475821247152915], [-91.03246254338639, 30.476033209929426], [-91.0324678239618, 30.476168809052165], [-91.03252780422727, 30.476510747520866], [-91.03271761803725, 30.47718639553471], [-91.03277875027244, 30.477403261205087], [-91.03302723047402, 30.478284738918507], [-91.0330765088577, 30.478500185570383], [-91.0331199680327, 30.478718578686657], [-91.03315053696471, 30.47901713862712], [-91.0331445627258, 30.47941698065876], [-91.03311845474101, 30.479660606493557], [-91.03308124968873, 30.479893791788854], [-91.03291794166714, 30.480617193707587], [-91.03269522899897, 30.48164762136323], [-91.03266236931726, 30.481834816907078], [-91.03264311435173, 30.48208033436015], [-91.03264377603097, 30.48241643533609], [-91.03265829837234, 30.482605445234668], [-91.03266804455325, 30.482710132101694], [-91.03273735838232, 30.483086514073143], [-91.03283030010805, 30.48341443169685], [-91.03287018062868, 30.48353871501466], [-91.03303012294022, 30.483899368325144], [-91.03323035066065, 30.484251400576106], [-91.03351510919731, 30.48465664602556], [-91.03395699339366, 30.48528549647227], [-91.03415455167134, 30.485570412434747], [-91.03431187148873, 30.485815760701357], [-91.03443770265605, 30.486099339569357], [-91.0344907634345, 30.48625261215591], [-91.03456548434428, 30.486553494402596], [-91.03459835693651, 30.48694852144489], [-91.0346074771907, 30.487503493291943], [-91.03463492558006, 30.489173758647592], [-91.03464325121936, 30.489680371953327], [-91.03464955458571, 30.489961884374395], [-91.03464965976177, 30.490432552262803], [-91.03466336745294, 30.490638482465783], [-91.03471242598039, 30.490953745724703], [-91.03480711003611, 30.49128153698935], [-91.03492533778412, 30.491559760206357], [-91.0350565122823, 30.49179652630032], [-91.03525520574877, 30.492078548743347], [-91.03551125863616, 30.492361480269484], [-91.0356796379814, 30.492521454168003], [-91.03584258470141, 30.49265118458071], [-91.03597453355539, 30.492756234874783], [-91.03615009310575, 30.49286863472383], [-91.03651140994361, 30.49307467640722], [-91.03657498080985, 30.49311362962084], [-91.03665595079242, 30.493163243680097], [-91.03705806945138, 30.49340964188445], [-91.03780841375732, 30.493869407631056], [-91.03797680070076, 30.493972584278765], [-91.03784184929863, 30.494136501911825], [-91.03729304368709, 30.494182789873683], [-91.03682092155641, 30.494385897085426], [-91.0363121582855, 30.494660955963134], [-91.03611896784604, 30.494734793092608], [-91.03571216454182, 30.49481602921423], [-91.03557657221593, 30.49485482974535], [-91.03532913417925, 30.49478603662584], [-91.03497205543813, 30.494544234357928], [-91.03393353766438, 30.494680194679265], [-91.0338713974268, 30.494787118799476], [-91.03353888848818, 30.49460610184713], [-91.03323059144488, 30.49487169008543], [-91.03282604627206, 30.494987447335326], [-91.03306402206003, 30.495367635805398], [-91.03294728380733, 30.495635082250413], [-91.03256531499977, 30.49567095764041], [-91.03218040606524, 30.49626981699129], [-91.03222989638559, 30.496282499037946], [-91.03241389651306, 30.496346498994225], [-91.0330008968452, 30.4965494990039], [-91.03324089626818, 30.496659498671683], [-91.03329589674483, 30.49668549922248], [-91.03343489682793, 30.49676349863918], [-91.03356689688542, 30.4968504991236], [-91.03383389706458, 30.49707649898066], [-91.03391489712779, 30.497157499475232], [-91.0339868966164, 30.497243498663774], [-91.03425789701409, 30.497602499470204], [-91.034418896556, 30.497892499231728], [-91.03454489709063, 30.498156498828237], [-91.03466689749008, 30.49836049904154], [-91.03477689703959, 30.498592499295988], [-91.03481689753906, 30.498655499740607], [-91.03484689758157, 30.498708498941745], [-91.03499889765605, 30.498976499617], [-91.03512189696158, 30.49916349943872], [-91.03524389693104, 30.499309499720102], [-91.03536589714824, 30.49942049966506], [-91.03541589764995, 30.49946549912072], [-91.03577089714338, 30.499860499523407], [-91.03592489770692, 30.500114499837633], [-91.03594889747184, 30.500143499309203], [-91.03608389731367, 30.500280500092753], [-91.036330897452, 30.500472499514846], [-91.0364628977555, 30.50058350009968], [-91.0365988979514, 30.50069749987028], [-91.03674289785019, 30.500826499858043], [-91.0369108976045, 30.50098649975653], [-91.03737389811235, 30.501449499892413], [-91.03752089816501, 30.501621500017606], [-91.03756489848621, 30.501682499605067], [-91.037797898122, 30.5019765003722], [-91.03797489858077, 30.50221750018549], [-91.03823489785957, 30.502582499803644], [-91.03837689832818, 30.502800500368725], [-91.03885189805965, 30.5035985004922], [-91.03927589901612, 30.504380500002224], [-91.0393128984874, 30.504445500295002], [-91.03936789853564, 30.50454150036971], [-91.03967589899496, 30.505005500578836], [-91.03978889869927, 30.50515350064136], [-91.04009389868953, 30.50557550106789], [-91.04013689909, 30.50564250075003], [-91.0401798985067, 30.50570950041452], [-91.04022189891245, 30.50577650055705], [-91.04039089895839, 30.50604350099402], [-91.04056089900638, 30.506328500511383], [-91.04067089884951, 30.506522501159072], [-91.04085889932794, 30.506882500778712], [-91.04089689862876, 30.506946500589482], [-91.04096089885111, 30.507038501109406], [-91.04106489937061, 30.507150501227958], [-91.04122889893932, 30.507312500772272], [-91.04126989908912, 30.507342501038448], [-91.04129189972502, 30.50735950119922], [-91.04135989924634, 30.507401500750188], [-91.04151589938192, 30.50744850054736], [-91.04172189906566, 30.507469500972444], [-91.04180289904374, 30.50748150099722], [-91.04192689994031, 30.50749150107158], [-91.04205189928301, 30.50749250061771], [-91.04255189987292, 30.507475501161554], [-91.04296589999456, 30.507443501043262], [-91.0431278994149, 30.507411501122363], [-91.04352890000585, 30.50731050064196], [-91.04364490019687, 30.507271501254674], [-91.04379589986435, 30.507214500959154], [-91.0441768999721, 30.507080500507858], [-91.0442498998312, 30.507047500978526], [-91.04443690059006, 30.506973500688567], [-91.04462089962924, 30.506894500653715], [-91.04476390041194, 30.50682350068966], [-91.04487389999298, 30.506775500762846], [-91.04521289995293, 30.506644500747786], [-91.04532990030475, 30.50660750103284], [-91.04552989986142, 30.506556500377158], [-91.04589389998402, 30.506484500241292], [-91.0462209008574, 30.506436500372192], [-91.04630290097032, 30.506427500638814], [-91.04675090019362, 30.506350500648864], [-91.04676190074653, 30.506347500747832], [-91.0473529011265, 30.50620250031287], [-91.04774890091888, 30.50609150028001], [-91.04826790090755, 30.50595950058744], [-91.04859690144235, 30.505859500494793], [-91.04875190069136, 30.505806500187905], [-91.04924290149228, 30.505616500395767], [-91.05012990186262, 30.505231500279407], [-91.05023890145337, 30.50518850020305], [-91.0503569013263, 30.505143500459667], [-91.05062790140342, 30.50505050029011], [-91.05086290131125, 30.504975500120825], [-91.05129790165071, 30.504854500221953], [-91.05177090175613, 30.50471250027653], [-91.05192690159654, 30.504662500443228], [-91.0521539018655, 30.504576500119395], [-91.05236890216689, 30.504467500117734], [-91.05257490205736, 30.50434749982271], [-91.05264090180958, 30.504304500340137], [-91.05318990188951, 30.503919500135588], [-91.05331590204744, 30.50382749990677], [-91.0537069022722, 30.503507499726375], [-91.0540939029495, 30.503134499858916], [-91.05469690265463, 30.502592499772412], [-91.05475290245178, 30.502545499147434], [-91.05486590227673, 30.502452499418876], [-91.05504790254295, 30.50230649948007], [-91.05529890275963, 30.502117499346834], [-91.05543590302047, 30.502036499218516], [-91.05561390307243, 30.50194349911364], [-91.05592790330343, 30.50176649936259], [-91.05613190326375, 30.501642499419827], [-91.05623290307396, 30.50157449939494], [-91.0563159029783, 30.50157949922732], [-91.05639890304774, 30.501572498818025], [-91.0565199027172, 30.501547499537594], [-91.05698990368244, 30.501400498770526], [-91.05714890346236, 30.50135749904784], [-91.05722990285533, 30.50134049904496], [-91.05731090289544, 30.501328499148435], [-91.05747290293644, 30.50129549928896], [-91.05772190318366, 30.50127149906309], [-91.05788490307516, 30.501247498895133], [-91.05817590366183, 30.50122349953738], [-91.05829990385219, 30.501225499207994], [-91.05842390411418, 30.501236498680072], [-91.05854690370445, 30.501254498700206], [-91.05858690319427, 30.50126349868173], [-91.05870390368881, 30.501299499465592], [-91.0588949039241, 30.501373498930718], [-91.05900390329738, 30.501424499553966], [-91.05908090347626, 30.50145149924356], [-91.05912090345443, 30.501461499455555], [-91.05919090341514, 30.50150049919737], [-91.05926890408429, 30.501525499164035], [-91.05945790368578, 30.501601498959737], [-91.05961290393778, 30.50165349904652], [-91.05983990450407, 30.501743499382894], [-91.05991890411615, 30.50176449946216], [-91.06020190409626, 30.5018214991087], [-91.06057390468665, 30.501854499033463], [-91.06064690425343, 30.501856498716172], [-91.06069690430964, 30.5018584987848], [-91.06110990480319, 30.501847499491543], [-91.06119290468506, 30.50184849920788], [-91.06156490498256, 30.50183649947525], [-91.06160590418821, 30.50183249911342], [-91.06173090475893, 30.50183049876133], [-91.06189690462985, 30.501835499439736], [-91.06210490507536, 30.50183449885912], [-91.06231290489187, 30.50184249876746], [-91.06264490474037, 30.501831499255356], [-91.06281190524005, 30.50181949868779], [-91.06297590525074, 30.501796499199948], [-91.06301590503128, 30.501786499423037], [-91.06328390493574, 30.501686498693307], [-91.0635419054651, 30.50157049873209], [-91.06379190476372, 30.50144149852668], [-91.06420690512681, 30.501273498916184], [-91.0646659055456, 30.501102498663492], [-91.06486190558627, 30.501041499109064], [-91.06494290567166, 30.501022499017097], [-91.06527290595179, 30.500990498675538], [-91.065646905568, 30.50098049862009], [-91.06589590548631, 30.500986498374882], [-91.0661859058019, 30.501016498730802], [-91.06651290625099, 30.501067499196974], [-91.06680190555814, 30.50110149865149], [-91.06729990641357, 30.501130499101237], [-91.06750790604595, 30.501133498812248], [-91.06767290646151, 30.50114649878523], [-91.06779690596714, 30.501144498813648], [-91.0679619062865, 30.501122499153485], [-91.0680819062593, 30.501094498754092], [-91.0682039064679, 30.501071498798943], [-91.06828290653162, 30.5010494986985], [-91.06844590581332, 30.501021498391527], [-91.06852890636463, 30.50101849825747], [-91.06873690600109, 30.501026498897275], [-91.0692789064499, 30.50103049881805], [-91.06958190667869, 30.50102049839713], [-91.0697069071339, 30.50102749854713], [-91.07043990682459, 30.501156499056663], [-91.0705199067402, 30.50117649891349], [-91.07059690728096, 30.501202498724002], [-91.07067290706445, 30.501233498460564], [-91.07085190725564, 30.50132549905879], [-91.0709529070551, 30.501387499013862], [-91.07098890657834, 30.501405498954384], [-91.0711149069493, 30.50149949862819], [-91.07116790678133, 30.501554498877507], [-91.07136290731412, 30.501739498309956], [-91.07160390714076, 30.50198549863761], [-91.0718079071326, 30.50221149875019], [-91.07196790708858, 30.502376498730086], [-91.07210590730267, 30.50251049888514], [-91.07284090792433, 30.503148498617318], [-91.07326390732298, 30.503487498783258], [-91.07341990730463, 30.50361349909321], [-91.07354690818974, 30.503706498854267], [-91.0736139083078, 30.50374849883713], [-91.07379190837256, 30.50384049882294], [-91.07382590803313, 30.503862499223903], [-91.07388490810548, 30.503911498741914], [-91.07398190789768, 30.504028499142482], [-91.07409890812609, 30.504217499112087], [-91.0741309084906, 30.504283499166583], [-91.07421090831184, 30.504408498977515], [-91.07426690778134, 30.504504499064197], [-91.07436590835177, 30.50470149912669], [-91.07438990825075, 30.50476949956741], [-91.074436908382, 30.50494449926411], [-91.07445390837738, 30.505086499537384], [-91.07445590776294, 30.50537349907067], [-91.07443590844667, 30.50555249910943], [-91.07441790826194, 30.50562249931832], [-91.07439390793253, 30.505691499119752], [-91.07435090845013, 30.505792499474307], [-91.0742609080053, 30.505954499251445], [-91.07410690818986, 30.506209499177587], [-91.07400690847018, 30.50636649977766], [-91.07378690792653, 30.50667050000381], [-91.07340790778406, 30.507275499768877], [-91.07330890809237, 30.507432499954387], [-91.0732759080738, 30.507498499608484], [-91.07318790804682, 30.507700500046145], [-91.07312490836696, 30.507870500126465], [-91.07311890797843, 30.507906499640892], [-91.07302290758814, 30.508254500462165], [-91.07298890761612, 30.508394499806162], [-91.07296890831608, 30.508486499879876], [-91.07294490737353, 30.508605499876765], [-91.07289290805544, 30.50896250039477], [-91.07288390824111, 30.50906949995796], [-91.07288590837223, 30.509356500075814], [-91.07292790830617, 30.509714500047238], [-91.07295590789276, 30.509892500766913], [-91.07300990833049, 30.510101500622827], [-91.07322290765755, 30.510757500531568], [-91.0733619082648, 30.51109650032048], [-91.07362790864067, 30.511621501193964], [-91.0736989080506, 30.5117895009544], [-91.07372290867534, 30.51185850085279], [-91.07382490815667, 30.512201501163542], [-91.07384690857646, 30.51227450136654], [-91.07386816626119, 30.512380539974448], [-91.0739319087358, 30.512698501443747], [-91.07403973420014, 30.513371416260757], [-91.07403990848158, 30.51337250088175], [-91.0740629087153, 30.513476501467377], [-91.07410290793503, 30.513653501397375], [-91.07416490839248, 30.513824501472957], [-91.07421490884867, 30.513922501144965], [-91.0742769086036, 30.514016501083383], [-91.07439490855622, 30.51416450159243], [-91.07444790863497, 30.514219501199484], [-91.07447090878752, 30.51424950098108], [-91.07512090867043, 30.51494650177188], [-91.07536390880662, 30.51523650157518], [-91.07541590927185, 30.515292501918996], [-91.07555790871497, 30.515469501585418], [-91.0757149084188, 30.51568150143436], [-91.07576090843462, 30.51578150156659], [-91.07577190874287, 30.51585250173376], [-91.075769908923, 30.515922501470524], [-91.07586290883457, 30.516042501526837], [-91.07600490860074, 30.516173501820454], [-91.07625290938375, 30.51636450197818], [-91.0763699094807, 30.51646550214034], [-91.07649190929335, 30.516563501717407], [-91.07655590883502, 30.516608501676345], [-91.07667490942738, 30.516708501446374], [-91.076810908944, 30.516789501451463], [-91.07695890941397, 30.51685350175299], [-91.0771149094032, 30.51690150216856], [-91.07760590904786, 30.516984501521566], [-91.07780690955845, 30.51702950210722], [-91.07801190923574, 30.517063502241985], [-91.07869190938717, 30.517229501705433], [-91.07926391002864, 30.51732850174033], [-91.07975491014447, 30.517405501610064], [-91.0801259098704, 30.51744250184402], [-91.0804579104722, 30.51745250179533], [-91.08078591006995, 30.51742450205316], [-91.08088791022747, 30.517390502196786], [-91.08095291068402, 30.51736250168488], [-91.08110491059834, 30.517271501907025], [-91.08124991095538, 30.517175502024116], [-91.08155491059772, 30.517000501697876], [-91.08161791093725, 30.516968501820568], [-91.0816839108149, 30.5169435013008], [-91.08171491018116, 30.516925501865163], [-91.08195691056682, 30.516860501808566], [-91.08206291029897, 30.51683650167905], [-91.08220391022972, 30.516810501256963], [-91.08256191050224, 30.516780501843776], [-91.08266891076622, 30.51678350183268], [-91.08277591047084, 30.51679250134669], [-91.08288091127595, 30.516807502016473], [-91.0832619108032, 30.516878501174688], [-91.0834989112524, 30.516942501717715], [-91.08379591088764, 30.51703750156312], [-91.08392391067443, 30.51708950132782], [-91.08413991132687, 30.517190501596232], [-91.08420391096399, 30.517217501712157], [-91.0844459109501, 30.51734250195156], [-91.08468191159423, 30.517476502066124], [-91.08476691118949, 30.51753050127024], [-91.0849269114647, 30.51764850174611], [-91.0850749110169, 30.51777750180235], [-91.08522991130846, 30.517944501517658], [-91.08540091129828, 30.518137501360137], [-91.08545591114351, 30.518216501366613], [-91.08550191188847, 30.51829850189255], [-91.0855599113067, 30.518428501892384], [-91.08557091128424, 30.518457502103743], [-91.08563291134678, 30.518568502222493], [-91.08570691145701, 30.518671501828116], [-91.08573991166652, 30.51872550231264], [-91.08581891227604, 30.518995501656747], [-91.0858769115681, 30.51914050186064], [-91.0859339118438, 30.519318502065946], [-91.08596991217398, 30.51947150206234], [-91.086014911644, 30.519614502373404], [-91.08600391230604, 30.51962150165744], [-91.0867109125189, 30.521922502547238], [-91.08684991206097, 30.52214250243532], [-91.08703191215987, 30.52233750220935], [-91.08715391205094, 30.522482502606845], [-91.08726291189416, 30.522590502373856], [-91.0873829123477, 30.522689502790996], [-91.08755191267623, 30.522792502720062], [-91.08808391272983, 30.523068502352444], [-91.08834091249933, 30.52318450240046], [-91.08876891238323, 30.523399502455902], [-91.08887791307865, 30.523449502926205], [-91.08908791250855, 30.523560502978093], [-91.08954791298653, 30.52383250294831], [-91.08956391285643, 30.52384250288164], [-91.08975291261685, 30.52398250318995], [-91.08990291327467, 30.52410750331829], [-91.0900149136271, 30.52421250331752], [-91.09013291292314, 30.52431450316613], [-91.09020691363534, 30.52440050254906], [-91.09025291323593, 30.52446150311097], [-91.09033291314762, 30.52458650315117], [-91.09038391340164, 30.524684502691933], [-91.09060691322104, 30.52502950299897], [-91.09065691308257, 30.52516650292176], [-91.09069991319404, 30.525268502719566], [-91.09100891366538, 30.52577650321794], [-91.09119191383454, 30.526057502963518], [-91.09123991406446, 30.526116503335146], [-91.0915119131581, 30.52638650327828], [-91.09157791327135, 30.5264305035929], [-91.09165191395675, 30.52646250305805], [-91.09169191408245, 30.526471503764256], [-91.091815914084, 30.52648550361521], [-91.09198191359307, 30.52647350322049], [-91.09214691413308, 30.52645150327894], [-91.092350914063, 30.526415502923605], [-91.09251091381759, 30.526375503663473], [-91.09261891399663, 30.5263225029958], [-91.09279391402075, 30.526224503025595], [-91.09302091383834, 30.526066502974622], [-91.09322191383623, 30.525937503469688], [-91.0933479137431, 30.525843502894073], [-91.09374191444125, 30.525578503443924], [-91.09408391396435, 30.52537350309755], [-91.09427191423282, 30.525296502935365], [-91.09446791426167, 30.52523650271598], [-91.09450891409467, 30.525230503134853], [-91.09470891440914, 30.52518550290128], [-91.09491591484785, 30.525162502667083], [-91.09505591423024, 30.525160503227152], [-91.09513891460429, 30.52516650337364], [-91.09526191428623, 30.52518350296306], [-91.09534191426226, 30.5252045033397], [-91.09549291426916, 30.525264502799057], [-91.09576091524141, 30.52543350317193], [-91.09581991467611, 30.525483502844683], [-91.09595091505021, 30.525622503397745], [-91.09599191480932, 30.525684503273567], [-91.09611691491841, 30.525911503178584], [-91.0961629150196, 30.526049503204714], [-91.09617391523103, 30.526192502857484], [-91.09617391512771, 30.52633550354116], [-91.09615191461397, 30.526477503203328], [-91.0961039154119, 30.526652503184344], [-91.09602091494878, 30.52685550343657], [-91.09595691512192, 30.526987503288648], [-91.09586191517859, 30.52714750331895], [-91.09573391517148, 30.527332503228482], [-91.09566591498385, 30.52742250311189], [-91.09561391490084, 30.52747850334083], [-91.09547191456979, 30.527610503548953], [-91.09523491440582, 30.52780650338257], [-91.09511291466885, 30.527908503330444], [-91.09492391506582, 30.528050503354503], [-91.09486491486206, 30.52810050370983], [-91.09469991437648, 30.528261503396315], [-91.09455591420966, 30.52843850357739], [-91.09447491418265, 30.52856350358503], [-91.0943229144936, 30.52873450390584], [-91.09430191497978, 30.52876550400399], [-91.09425291500867, 30.528864503892756], [-91.09417741503316, 30.529088503688776], [-91.09410191471663, 30.529312503426024], [-91.09390891400054, 30.52993750433312], [-91.09388691435403, 30.530042503761642], [-91.09387391405836, 30.53014950399069], [-91.09386591455616, 30.530221504399968], [-91.09383591493382, 30.530399503694863], [-91.09374491402744, 30.530675503974276], [-91.09371491490177, 30.530753503817593], [-91.0936919144689, 30.53081150417492], [-91.0936872852778, 30.530826350878854], [-91.09398349255204, 30.53082314326957], [-91.09424919045698, 30.530820114430576], [-91.0945895204275, 30.530816233737472], [-91.09492985141125, 30.53081235307337], [-91.09951659400431, 30.530708149865685], [-91.10215428010505, 30.53064924364066], [-91.10271804503358, 30.53059447717483], [-91.10359380438089, 30.530459111899493], [-91.10445497551989, 30.5302372154992], [-91.10531614176604, 30.530015312576985], [-91.1081448455647, 30.529264786356062], [-91.10877774286622, 30.529083424862748], [-91.10898305043398, 30.529024591688394], [-91.10918835671616, 30.528965758192737], [-91.10941063785349, 30.528902060333074], [-91.11011454753252, 30.528738657958492], [-91.11291607289539, 30.52800297055642], [-91.11415130685346, 30.52765820111305], [-91.11505048467849, 30.527465821156508], [-91.11623642477038, 30.527248295390002], [-91.1175694300559, 30.527085795233326], [-91.1191228001088, 30.52700266688477], [-91.12156102635574, 30.526923462019624], [-91.12328762639572, 30.52677571016454], [-91.12632075331547, 30.526488561795944], [-91.12742101766881, 30.526373807834236], [-91.12911826583816, 30.526242376981422], [-91.1322993528383, 30.52594205233824], [-91.13340828131727, 30.525815645961], [-91.13431892176312, 30.525682545731023], [-91.13577326086528, 30.525432801136848], [-91.13752799456628, 30.525107844055842], [-91.13775087503547, 30.525075833877285], [-91.13793126959389, 30.525042782777895], [-91.13811166403035, 30.525009732334382], [-91.13846815637703, 30.52489221967225], [-91.13886439091259, 30.52469290081634], [-91.1391978388429, 30.524430628727007], [-91.13928084074368, 30.524351111282545], [-91.13936384146763, 30.524271594684603], [-91.13957140506626, 30.523967252688188], [-91.13963326912517, 30.5238235839169], [-91.13978823137307, 30.52346057401574], [-91.13992090558814, 30.523087617697257], [-91.14007477093813, 30.52277949156925], [-91.14023452864504, 30.522596078110244], [-91.14039052213057, 30.522465750562603], [-91.14058118015669, 30.522309562560977], [-91.14070016216763, 30.52222401578869], [-91.14098300451305, 30.522056100151758], [-91.14131959018482, 30.52192070264322], [-91.14183413799522, 30.52182275378628], [-91.14426223481755, 30.521768824875505], [-91.14526018014926, 30.52174670832901], [-91.1453221618838, 30.521745334149088], [-91.14540349364931, 30.52151732603826], [-91.14724652902007, 30.516350191645728]]]}}]}