{"type": "FeatureCollection", "features": [{"type": "Feature", "properties": {"section": "1", "divisions": "A, B, D, J, K, L, M, O"}, "geometry": {"type": "MultiPolygon", "coordinates": [[[[-91.190030941563, 30.707343985446], [-91.180300504001, 30.70765837114], [-91.174207079518, 30.707870457242], [-91.145077867738, 30.708810332812], [-91.141866533921, 30.709012972016], [-91.139496029568, 30.709099715939], [-91.139185239827, 30.709110756425], [-91.128060728886, 30.709505458264], [-91.119624793861, 30.70981503458], [-91.115110149651, 30.70999562006], [-91.10869178851, 30.710257780544], [-91.107236484344, 30.710328250516], [-91.107133247217, 30.710350017471], [-91.101532903047, 30.710549119874], [-91.101341451624, 30.71055679037], [-91.091332036505, 30.710894050973], [-91.068182503088, 30.711683159207], [-91.063400167013, 30.711885542485], [-91.053431385127, 30.71222573258], [-91.053204545727, 30.711840903226], [-91.052981230326, 30.711553783983], [-91.052460162178, 30.710979545391], [-91.052087970202, 30.710575452228], [-91.051556268629, 30.710171358289], [-91.051343587084, 30.709703460281], [-91.051354221108, 30.709171758306], [-91.051466931747, 30.70872232938], [-91.051715778286, 30.708172157827], [-91.051928459337, 30.7077467959], [-91.052013532187, 30.707332068157], [-91.052158661854, 30.706763290796], [-91.051385624193, 30.70546816086], [-91.051131949805, 30.705284580192], [-91.050865054483, 30.705237161841], [-91.050705544706, 30.70481180007], [-91.050471595042, 30.704258829584], [-91.050110037424, 30.703737761514], [-91.049695309502, 30.703333667941], [-91.049461360673, 30.703035914185], [-91.049399443019, 30.702720413461], [-91.049574513748, 30.702298251811], [-91.050464466669, 30.701999520112], [-91.050982675709, 30.701922406185], [-91.051237246727, 30.701887437821], [-91.051460561397, 30.701642854864], [-91.051598017764, 30.701195187401], [-91.051683875779, 30.700824032852], [-91.051683876332, 30.700132820094], [-91.051843386658, 30.699664921871], [-91.052194310741, 30.69939907111], [-91.052417625167, 30.699090683797], [-91.05301313225, 30.699005611169], [-91.054337070376, 30.698989660554], [-91.054650774783, 30.698973708865], [-91.055086770688, 30.698846100233], [-91.055166508685, 30.698755364196], [-91.055395158129, 30.698495177233], [-91.055565302313, 30.698101717565], [-91.055597205125, 30.697176556062], [-91.055746081202, 30.696857534685], [-91.056352222188, 30.696527879164], [-91.056735047205, 30.696400270307], [-91.057171043917, 30.69642153828], [-91.057724013359, 30.696453440929], [-91.058138741414, 30.696368368053], [-91.058468396986, 30.696176954889], [-91.058734247824, 30.695911104099], [-91.058915026337, 30.69554954689], [-91.058787418247, 30.695124184521], [-91.058489664836, 30.694613751001], [-91.058096173666, 30.694186964186], [-91.057660208872, 30.693752392798], [-91.057107239076, 30.693284495043], [-91.057139141347, 30.692774060741], [-91.05756450263, 30.692550746425], [-91.057915426026, 30.692593282112], [-91.058447128323, 30.692720890384], [-91.058989465014, 30.692784695098], [-91.059297851863, 30.692774061309], [-91.059670043584, 30.69258264805], [-91.060052869849, 30.691912703014], [-91.060467597175, 30.691327830414], [-91.06073344821, 30.691104515737], [-91.061084372162, 30.69097690701], [-91.061743682674, 30.690955639446], [-91.062955963515, 30.69125339242], [-91.063551470567, 30.691295928261], [-91.064189512695, 30.690870566536], [-91.064402193465, 30.690147451369], [-91.064423462026, 30.689594481532], [-91.065040236601, 30.689147851665], [-91.065720815822, 30.689594481552], [-91.066465199273, 30.69023252361], [-91.067486067059, 30.689998575398], [-91.0682729862, 30.689615749634], [-91.0684856668, 30.688935170939], [-91.067592407302, 30.687531476191], [-91.067720016148, 30.68714865086], [-91.068358058532, 30.687127382689], [-91.069081173935, 30.687148651158], [-91.07010976801, 30.687182374917], [-91.071165446506, 30.68712738284], [-91.071782221131, 30.687148650862], [-91.072510719459, 30.687535373275], [-91.072973234219, 30.687871766001], [-91.073419863872, 30.687956838604], [-91.073909030863, 30.687893034119], [-91.07441946463, 30.687595280755], [-91.074972435195, 30.687148650344], [-91.075415823835, 30.686752767119], [-91.075567941447, 30.68661694869], [-91.07652500513, 30.686340463557], [-91.076929099434, 30.686297927499], [-91.077120511682, 30.686489339717], [-91.077694750518, 30.687425135442], [-91.078226452928, 30.687488940344], [-91.078630546486, 30.68721245469], [-91.078694350805, 30.686595679865], [-91.078726253123, 30.686372365497], [-91.078970835571, 30.685787493323], [-91.079257955423, 30.685702420501], [-91.079917265902, 30.685596079678], [-91.080799891276, 30.6855748121], [-91.081455126599, 30.685024558383], [-91.081809117472, 30.684842716656], [-91.082056656229, 30.684737989024], [-91.082234186748, 30.684692115354], [-91.082702255103, 30.68463903911], [-91.083245721988, 30.684724088563], [-91.083862496966, 30.684660284111], [-91.084096445852, 30.68438379866], [-91.084181518479, 30.683830864365], [-91.084205552615, 30.683261281359], [-91.084245321705, 30.682788692219], [-91.084493946245, 30.682387069441], [-91.084733704047, 30.682211663955], [-91.085010561036, 30.682041290387], [-91.08519965985, 30.68196392982], [-91.085776624686, 30.681789091775], [-91.086138182196, 30.681618947024], [-91.086329595346, 30.681384998098], [-91.08635086337, 30.681023440996], [-91.086114320737, 30.680392659664], [-91.086095646452, 30.680268423175], [-91.086148816442, 30.680098278335], [-91.086529347909, 30.67951789018], [-91.086589367633, 30.679046714793], [-91.08651057743, 30.678777167621], [-91.086336408744, 30.678441271055], [-91.08590625798, 30.678152378673], [-91.085546520507, 30.678051694307], [-91.084878883384, 30.678185828798], [-91.084449579201, 30.678105374004], [-91.084075177366, 30.678045908065], [-91.083713620045, 30.677684350419], [-91.083968086335, 30.676881918484], [-91.084727179786, 30.676661093472], [-91.085228888963, 30.676539795207], [-91.085781378826, 30.676454602761], [-91.086082234979, 30.676230609761], [-91.086596311846, 30.675816492467], [-91.086903650293, 30.675508485241], [-91.087180318591, 30.675089644007], [-91.086925100767, 30.674409064865], [-91.086539301979, 30.674177586738], [-91.086354082012, 30.67386377291], [-91.08642510214, 30.67322603401], [-91.086731626465, 30.673232363926], [-91.087265390171, 30.673324392474], [-91.087637091741, 30.673389035622], [-91.087977871732, 30.673398830341], [-91.088201186927, 30.673388196496], [-91.088562744688, 30.673239319596], [-91.088775425167, 30.673069175459], [-91.088924302049, 30.672750154013], [-91.08895455488, 30.672538382475], [-91.088944049684, 30.672213125467], [-91.088924301771, 30.671601677225], [-91.089051910132, 30.671197583297], [-91.089213597531, 30.670892172882], [-91.08956234459, 30.670517004433], [-91.089860097092, 30.67032559105], [-91.090157850917, 30.669921497982], [-91.090252590756, 30.669819470679], [-91.090471599569, 30.669558532934], [-91.090604480258, 30.669325991336], [-91.090817161138, 30.669113310057], [-91.091179960623, 30.668973949778], [-91.091669292108, 30.669052740834], [-91.092137889624, 30.669305700448], [-91.092535990309, 30.669641596952], [-91.092776509158, 30.669948466335], [-91.093007775043, 30.670006569691], [-91.093386100059, 30.670023109751], [-91.093784200274, 30.669695506945], [-91.093734437648, 30.669255937887], [-91.093376358695, 30.667306069778], [-91.093299014876, 30.667091267906], [-91.092305927357, 30.66571041606], [-91.092353950969, 30.664929198858], [-91.092433536569, 30.664285453903], [-91.092858898273, 30.663987700926], [-91.093624549754, 30.663860092034], [-91.094007374513, 30.663902628363], [-91.094475272845, 30.663902628039], [-91.09458552498, 30.66393815688], [-91.095482969983, 30.663328571379], [-91.095192285775, 30.661685584217], [-91.094493041359, 30.661067734456], [-91.094279505163, 30.660204612212], [-91.094352782767, 30.659618390746], [-91.095147584415, 30.658917095488], [-91.09652439111, 30.657845728574], [-91.096940852948, 30.656772993102], [-91.096484056751, 30.655355842325], [-91.096690433915, 30.65494308845], [-91.096873808533, 30.654678212761], [-91.097031593668, 30.654450301972], [-91.097197273863, 30.654257059765], [-91.097414465752, 30.654059612716], [-91.097625494017, 30.653867768513], [-91.097667999038, 30.653750879998], [-91.097812506741, 30.653353485592], [-91.097765753308, 30.652652190493], [-91.097812506522, 30.652231413155], [-91.097516179777, 30.651968011149], [-91.096434514322, 30.651041592456], [-91.095474854724, 30.650314539184], [-91.095100830567, 30.649472984631], [-91.095568360501, 30.64877168934], [-91.09594238498, 30.647509357142], [-91.095931382384, 30.647425007344], [-91.095886163377, 30.647078326846], [-91.095802125893, 30.646434038172], [-91.09567409883, 30.646251142692], [-91.095273168264, 30.645678384451], [-91.095147583271, 30.645498977314], [-91.094773558716, 30.64442365828], [-91.094692479331, 30.643207461634], [-91.09468726789, 30.643129290071], [-91.094680052831, 30.643021066675], [-91.094611777807, 30.642655320888], [-91.094594043226, 30.642334019508], [-91.094522403677, 30.641824111406], [-91.094450764865, 30.641314203175], [-91.094439781136, 30.640374814878], [-91.094891829561, 30.63971119745], [-91.095449611089, 30.639150869661], [-91.096338291785, 30.638717144556], [-91.097213416174, 30.638409402235], [-91.097797183427, 30.638055313683], [-91.097996695543, 30.637723452135], [-91.098323737961, 30.637363553307], [-91.098437027976, 30.637182511945], [-91.098550318618, 30.637001471377], [-91.098616395836, 30.636332388031], [-91.098553291719, 30.63574672599], [-91.098393915991, 30.634965709965], [-91.098653252294, 30.634589226153], [-91.09868719572, 30.634539949918], [-91.098852683571, 30.634299705727], [-91.100006258754, 30.633866423863], [-91.100290301783, 30.633504131217], [-91.100365022511, 30.633408825453], [-91.100809817862, 30.632697969626], [-91.101323435244, 30.631451574501], [-91.101695806344, 30.630833615437], [-91.102227111966, 30.630227388251], [-91.102784771979, 30.629678483457], [-91.10291770899, 30.629478238951], [-91.103050645463, 30.629277994297], [-91.103198118744, 30.628522170414], [-91.103055091258, 30.627364889878], [-91.102698681429, 30.626825848977], [-91.102077877515, 30.626057230426], [-91.101100421099, 30.624864120465], [-91.100770254791, 30.624439677647], [-91.100453714531, 30.623854876982], [-91.100084004351, 30.623350172317], [-91.099039501563, 30.62252351305], [-91.098887618265, 30.622334223929], [-91.098735735547, 30.62214493462], [-91.098472334366, 30.621502943859], [-91.098315311349, 30.620689304283], [-91.097985878211, 30.619967004513], [-91.097603031131, 30.619427901478], [-91.096982094514, 30.618750903117], [-91.096519839034, 30.618188743423], [-91.096389328177, 30.61737514799], [-91.096471018544, 30.61644737365], [-91.096472661281, 30.615760027947], [-91.096169199938, 30.615266885109], [-91.095309887982, 30.614589450952], [-91.094409941496, 30.614289979795], [-91.093628540357, 30.614265656676], [-91.09280737674, 30.614252712585], [-91.092079235221, 30.614113918817], [-91.091642625066, 30.613918374097], [-91.091378676423, 30.613528394399], [-91.091220856743, 30.613069873171], [-91.091341654859, 30.612417111857], [-91.09162211404, 30.611466790128], [-91.091849533933, 30.610539282506], [-91.091308718388, 30.609633284625], [-91.09088823216, 30.608269270849], [-91.090902401058, 30.607891253958], [-91.091128391787, 30.607547991994], [-91.091605822881, 30.607285379573], [-91.092215413308, 30.607137564488], [-91.092825029716, 30.606978290794], [-91.093288710159, 30.606921852559], [-91.093831798916, 30.606888467982], [-91.094481170849, 30.606717802681], [-91.094879262984, 30.606397756097], [-91.095065504756, 30.60605441572], [-91.095145849255, 30.60568797298], [-91.095135530471, 30.605651950579], [-91.095125210652, 30.605615928175], [-91.095047361914, 30.605344172617], [-91.095013910389, 30.605227402556], [-91.095001378631, 30.605183655634], [-91.094955308678, 30.60513251752], [-91.094918225813, 30.605091354941], [-91.094843731522, 30.605008663832], [-91.094763624243, 30.604919743034], [-91.094635869384, 30.604851696043], [-91.093943561625, 30.604482941132], [-91.092276608688, 30.603758199227], [-91.092122923825, 30.603452589234], [-91.091999831532, 30.603207813976], [-91.091979230964, 30.60282922604], [-91.091961802592, 30.602508937044], [-91.092215072338, 30.601833502211], [-91.092549277054, 30.601365926834], [-91.092746614163, 30.60108983722], [-91.093157343074, 30.600890001993], [-91.093780050232, 30.600587026707], [-91.093966432866, 30.600496341771], [-91.094470502013, 30.600153575499], [-91.094828728277, 30.599879280009], [-91.094872824357, 30.599815340004], [-91.095012470641, 30.599612848498], [-91.095081228324, 30.59951314641], [-91.09513209845, 30.599092709823], [-91.095135274157, 30.599066464437], [-91.094753584484, 30.598471171446], [-91.094686694829, 30.598366848454], [-91.094468585792, 30.597945221694], [-91.094212161287, 30.597449522149], [-91.094188287331, 30.597138474349], [-91.094147965298, 30.59661312664], [-91.094441816262, 30.595571171064], [-91.094697400308, 30.594950436489], [-91.094748186559, 30.594827090276], [-91.09464299193, 30.594517591619], [-91.094671710762, 30.593589715765], [-91.094754252303, 30.592306803604], [-91.094954481413, 30.591642721663], [-91.095331062759, 30.591170580237], [-91.096003753515, 30.5903271765], [-91.096243421486, 30.589777721982], [-91.096271932203, 30.588930035382], [-91.096285408768, 30.588853614266], [-91.096500132666, 30.58763592489], [-91.096567489117, 30.587154896618], [-91.096701051602, 30.586673986537], [-91.096966998211, 30.586204768495], [-91.09716902918, 30.585737966123], [-91.09718003203, 30.58571254366], [-91.097195810921, 30.584647170337], [-91.097183470359, 30.584269102566], [-91.096365073927, 30.583202238837], [-91.09571767143, 30.582616826042], [-91.095585895334, 30.582353102931], [-91.095600317318, 30.581860523329], [-91.095872023863, 30.581160120791], [-91.09598668348, 30.580864549142], [-91.09627964671, 30.580166261046], [-91.096360458614, 30.579593608174], [-91.096468872346, 30.578551310402], [-91.096663797794, 30.577974834367], [-91.096948908313, 30.577131629363], [-91.097586501545, 30.576262112799], [-91.097786788146, 30.57555219938], [-91.097827378459, 30.575185680638], [-91.097855708194, 30.57440672514], [-91.097871538427, 30.574346641917], [-91.097949229189, 30.574051756303], [-91.098361043009, 30.573468233033], [-91.098891953276, 30.572907831225], [-91.098930131783, 30.572874931758], [-91.099435880771, 30.572439098008], [-91.09984722054, 30.572050320642], [-91.100139187538, 30.571752979639], [-91.100418478602, 30.571215040067], [-91.100644648521, 30.570745742387], [-91.100791139602, 30.570379408222], [-91.100818961131, 30.569806657785], [-91.100728491228, 30.568867107836], [-91.100610523644, 30.56836283695], [-91.100440436078, 30.567503338377], [-91.10021796239, 30.566403171144], [-91.099928573145, 30.565612197291], [-91.099771033045, 30.565050575326], [-91.099878397101, 30.564432140334], [-91.10017171537, 30.563550544471], [-91.100279102227, 30.562920652887], [-91.100187350852, 30.562530986914], [-91.100081904038, 30.562336048961], [-91.099857395995, 30.562106532984], [-91.099434291566, 30.561888121965], [-91.098151506994, 30.561335960929], [-91.097741756404, 30.561071744073], [-91.097477679213, 30.560784873438], [-91.097359356121, 30.560440981969], [-91.09759938008, 30.559708223986], [-91.09783907403, 30.559112937143], [-91.098158516589, 30.558380319069], [-91.0982593393, 30.558002158636], [-91.098265367522, 30.557979547735], [-91.098412255614, 30.557441374909], [-91.098479392366, 30.557040532816], [-91.098625789859, 30.556708567379], [-91.098958970527, 30.555758306439], [-91.099066086025, 30.555242974188], [-91.098710987008, 30.554268581746], [-91.098275686239, 30.553626271067], [-91.097416675987, 30.55304048476], [-91.096755735496, 30.552661255749], [-91.096372771716, 30.55228252118], [-91.096241362839, 30.551881324052], [-91.096152295151, 30.550380421046], [-91.09632535514, 30.549968312778], [-91.096578132813, 30.549430330118], [-91.097758455115, 30.548470126116], [-91.098407899109, 30.54810468596], [-91.099031650905, 30.547406971101], [-91.099572916429, 30.546761507802], [-91.099702916924, 30.54662150773], [-91.099787916827, 30.546542507061], [-91.099939916794, 30.546417507006], [-91.100220916541, 30.546205507247], [-91.100285916928, 30.546161507678], [-91.100411917058, 30.546067507261], [-91.100603917338, 30.545902507593], [-91.100795916981, 30.545737506737], [-91.100902916794, 30.545627507027], [-91.10101491684, 30.545521506685], [-91.10114191683, 30.54537950725], [-91.101180917336, 30.545316506782], [-91.101246917383, 30.545145506586], [-91.101267917478, 30.545076506546], [-91.10130091761, 30.545010507016], [-91.101325917311, 30.544942507135], [-91.101384916819, 30.544659506443], [-91.101403917184, 30.544051506886], [-91.101397917214, 30.543908506428], [-91.101380917293, 30.543801506599], [-91.101313917254, 30.543484506709], [-91.101218917371, 30.543172506458], [-91.101141916661, 30.542944506278], [-91.101066916504, 30.54272350678], [-91.101024916533, 30.542584506831], [-91.100940917335, 30.542232505956], [-91.10090191646, 30.542019506678], [-91.100838916951, 30.541810506432], [-91.100817916894, 30.541704506126], [-91.100757916818, 30.541532506145], [-91.100494916662, 30.541005506505], [-91.100410916479, 30.540882506117], [-91.100327916258, 30.540801506193], [-91.100176916783, 30.540741506277], [-91.099971916899, 30.540711506258], [-91.099560916396, 30.540661506384], [-91.099438916887, 30.540637506416], [-91.099197916699, 30.540580506233], [-91.098840916765, 30.540482505664], [-91.098599915971, 30.540426505668], [-91.098476916148, 30.540407505833], [-91.098275916092, 30.540359506167], [-91.097895916345, 30.540212505879], [-91.097702916011, 30.540144505674], [-91.097476916342, 30.54005250586], [-91.097121916093, 30.53986550565], [-91.09694091615, 30.539776506051], [-91.096804915184, 30.539693505894], [-91.096607915402, 30.539561506049], [-91.096512915581, 30.539492505726], [-91.096398915228, 30.539387505488], [-91.096317915515, 30.539305506205], [-91.096242915972, 30.539218505798], [-91.096171915672, 30.539130006078], [-91.0961009155, 30.539041505415], [-91.095941915265, 30.538790505852], [-91.095757915113, 30.538429506075], [-91.095704914872, 30.538255505486], [-91.095654914845, 30.538045505609], [-91.095646915366, 30.537902505522], [-91.095647915343, 30.537830505242], [-91.095633914922, 30.5375455054], [-91.095651915322, 30.537151505353], [-91.095692914763, 30.536794505576], [-91.09570291565, 30.536614505646], [-91.095699915738, 30.536506505222], [-91.095687915452, 30.536327504949], [-91.095693915131, 30.536219505336], [-91.095690915726, 30.536183505209], [-91.095608914934, 30.536020505285], [-91.095499915067, 30.535866505321], [-91.095466914909, 30.535800504821], [-91.095426915147, 30.535737505502], [-91.095376914663, 30.535680504907], [-91.095321914684, 30.535625505085], [-91.095201914643, 30.535526505095], [-91.095087914704, 30.535422504868], [-91.094994915418, 30.535350504914], [-91.094865915037, 30.535259504979], [-91.094730914704, 30.535174505404], [-91.094625914563, 30.535117505496], [-91.09435391449, 30.5350265051], [-91.094196914814, 30.534978505496], [-91.093743914579, 30.534793505394], [-91.093633914538, 30.534742505142], [-91.093526915059, 30.534687505102], [-91.093285914727, 30.534547504815], [-91.093177914915, 30.53449350486], [-91.093024913992, 30.534436504977], [-91.092517913809, 30.534272505312], [-91.092478914308, 30.53425650494], [-91.092366914387, 30.534212505358], [-91.092188914215, 30.534121504677], [-91.092120913829, 30.534081505368], [-91.092024913985, 30.534014505139], [-91.091918914263, 30.533906505262], [-91.091798914447, 30.5337185052], [-91.091764913949, 30.533652504608], [-91.091721913617, 30.533552504391], [-91.091700913582, 30.533446505047], [-91.091705913726, 30.533303504777], [-91.091754913611, 30.533019504898], [-91.091779914549, 30.532913504698], [-91.091829913936, 30.532776504904], [-91.091966914018, 30.532555504526], [-91.092076914056, 30.532402504175], [-91.092664914295, 30.53206850448], [-91.092741914063, 30.532043504117], [-91.092820913875, 30.53202350474], [-91.092936914798, 30.53198550431], [-91.09301091394, 30.531952504309], [-91.093081914311, 30.531915504514], [-91.093113913836, 30.531893504581], [-91.093137914119, 30.531863504213], [-91.093204914357, 30.531735504764], [-91.093245913905, 30.531673504056], [-91.093288914334, 30.531598504707], [-91.093637914279, 30.530985504418], [-91.093662914808, 30.530904504324], [-91.093687285278, 30.530826350879], [-91.093691914469, 30.530811504175], [-91.093714914902, 30.530753503818], [-91.093744914027, 30.530675503974], [-91.093835914934, 30.530399503695], [-91.093865914556, 30.5302215044], [-91.093873914058, 30.530149503991], [-91.093886914354, 30.530042503762], [-91.093908914001, 30.529937504333], [-91.094101914717, 30.529312503426], [-91.094177415033, 30.529088503689], [-91.094252915009, 30.528864503893], [-91.09430191498, 30.528765504004], [-91.094322914494, 30.528734503906], [-91.094474914183, 30.528563503585], [-91.09455591421, 30.528438503577], [-91.094699914376, 30.528261503396], [-91.094864914862, 30.52810050371], [-91.094923915066, 30.528050503355], [-91.095112914669, 30.52790850333], [-91.095234914406, 30.527806503383], [-91.09547191457, 30.527610503549], [-91.095613914901, 30.527478503341], [-91.095665914984, 30.527422503112], [-91.095733915171, 30.527332503228], [-91.095861915179, 30.527147503319], [-91.095956915122, 30.526987503289], [-91.096020914949, 30.526855503437], [-91.096103915412, 30.526652503184], [-91.096151914614, 30.526477503203], [-91.096173915128, 30.526335503541], [-91.096173915231, 30.526192502857], [-91.09616291502, 30.526049503205], [-91.096116914918, 30.525911503179], [-91.095991914809, 30.525684503274], [-91.09595091505, 30.525622503398], [-91.095819914676, 30.525483502845], [-91.095760915241, 30.525433503172], [-91.095492914269, 30.525264502799], [-91.095341914262, 30.52520450334], [-91.095261914286, 30.525183502963], [-91.095138914604, 30.525166503374], [-91.09505591423, 30.525160503227], [-91.094915914848, 30.525162502667], [-91.094708914409, 30.525185502901], [-91.094508914095, 30.525230503135], [-91.094467914262, 30.525236502716], [-91.094271914233, 30.525296502935], [-91.094083913964, 30.525373503098], [-91.093741914441, 30.525578503444], [-91.093347913743, 30.525843502894], [-91.093221913836, 30.52593750347], [-91.093020913838, 30.526066502975], [-91.092793914021, 30.526224503026], [-91.092618913997, 30.526322502996], [-91.092510913818, 30.526375503663], [-91.092350914063, 30.526415502924], [-91.092146914133, 30.526451503279], [-91.091981913593, 30.52647350322], [-91.091815914084, 30.526485503615], [-91.091691914082, 30.526471503764], [-91.091651913957, 30.526462503058], [-91.091577913271, 30.526430503593], [-91.091511913158, 30.526386503278], [-91.091239914064, 30.526116503335], [-91.091191913835, 30.526057502964], [-91.091008913665, 30.525776503218], [-91.090699913194, 30.52526850272], [-91.090656913083, 30.525166502922], [-91.090606913221, 30.525029502999], [-91.090383913402, 30.524684502692], [-91.090332913148, 30.524586503151], [-91.090252913236, 30.524461503111], [-91.090206913635, 30.524400502549], [-91.090132912923, 30.524314503166], [-91.090014913627, 30.524212503318], [-91.089902913275, 30.524107503318], [-91.089752912617, 30.52398250319], [-91.089563912856, 30.523842502882], [-91.089547912987, 30.523832502948], [-91.089087912509, 30.523560502978], [-91.088877913079, 30.523449502926], [-91.088768912383, 30.523399502456], [-91.088340912499, 30.5231845024], [-91.08808391273, 30.523068502352], [-91.087551912676, 30.52279250272], [-91.087382912348, 30.522689502791], [-91.087262911894, 30.522590502374], [-91.087153912051, 30.522482502607], [-91.08703191216, 30.522337502209], [-91.086849912061, 30.522142502435], [-91.086710912519, 30.521922502547], [-91.086003912306, 30.519621501657], [-91.086014911644, 30.519614502373], [-91.085969912174, 30.519471502062], [-91.085933911844, 30.519318502066], [-91.085876911568, 30.519140501861], [-91.085818912276, 30.518995501657], [-91.085739911667, 30.518725502313], [-91.085706911457, 30.518671501828], [-91.085632911347, 30.518568502222], [-91.085570911284, 30.518457502104], [-91.085559911307, 30.518428501892], [-91.085501911888, 30.518298501893], [-91.085455911144, 30.518216501367], [-91.085400911298, 30.51813750136], [-91.085229911308, 30.517944501518], [-91.085074911017, 30.517777501802], [-91.084926911465, 30.517648501746], [-91.084766911189, 30.51753050127], [-91.084681911594, 30.517476502066], [-91.08444591095, 30.517342501952], [-91.084203910964, 30.517217501712], [-91.084139911327, 30.517190501596], [-91.083923910674, 30.517089501328], [-91.083795910888, 30.517037501563], [-91.083498911252, 30.516942501718], [-91.083261910803, 30.516878501175], [-91.082880911276, 30.516807502016], [-91.082775910471, 30.516792501347], [-91.082668910766, 30.516783501833], [-91.082561910502, 30.516780501844], [-91.08220391023, 30.516810501257], [-91.082062910299, 30.516836501679], [-91.081956910567, 30.516860501809], [-91.081714910181, 30.516925501865], [-91.081683910815, 30.516943501301], [-91.081617910937, 30.516968501821], [-91.081554910598, 30.517000501698], [-91.081249910955, 30.517175502024], [-91.081104910598, 30.517271501907], [-91.080952910684, 30.517362501685], [-91.080887910227, 30.517390502197], [-91.08078591007, 30.517424502053], [-91.080457910472, 30.517452501795], [-91.08012590987, 30.517442501844], [-91.079754910144, 30.51740550161], [-91.079263910029, 30.51732850174], [-91.078691909387, 30.517229501705], [-91.078011909236, 30.517063502242], [-91.077806909558, 30.517029502107], [-91.077605909048, 30.516984501522], [-91.077114909403, 30.516901502169], [-91.076958909414, 30.516853501753], [-91.076810908944, 30.516789501451], [-91.076674909427, 30.516708501446], [-91.076555908835, 30.516608501676], [-91.076491909293, 30.516563501717], [-91.076369909481, 30.51646550214], [-91.076252909384, 30.516364501978], [-91.076004908601, 30.51617350182], [-91.075862908835, 30.516042501527], [-91.075769908923, 30.515922501471], [-91.075771908743, 30.515852501734], [-91.075760908435, 30.515781501567], [-91.075714908419, 30.515681501434], [-91.075557908715, 30.515469501585], [-91.075415909272, 30.515292501919], [-91.075363908807, 30.515236501575], [-91.07512090867, 30.514946501772], [-91.074470908788, 30.514249500981], [-91.074447908635, 30.514219501199], [-91.074394908556, 30.514164501592], [-91.074276908604, 30.514016501083], [-91.074214908849, 30.513922501145], [-91.074164908392, 30.513824501473], [-91.074102907935, 30.513653501397], [-91.074062908715, 30.513476501467], [-91.074039908482, 30.513372500882], [-91.0740397342, 30.513371416261], [-91.073931908736, 30.512698501444], [-91.073868166261, 30.512380539974], [-91.073846908576, 30.512274501367], [-91.073824908157, 30.512201501164], [-91.073722908675, 30.511858500853], [-91.073698908051, 30.511789500954], [-91.073627908641, 30.511621501194], [-91.073361908265, 30.51109650032], [-91.073222907658, 30.510757500532], [-91.07300990833, 30.510101500623], [-91.072955907893, 30.509892500767], [-91.072927908306, 30.509714500047], [-91.072885908372, 30.509356500076], [-91.072883908241, 30.509069499958], [-91.072892908055, 30.508962500395], [-91.072944907374, 30.508605499877], [-91.072968908316, 30.50848649988], [-91.072988907616, 30.508394499806], [-91.073022907588, 30.508254500462], [-91.073118907978, 30.507906499641], [-91.073124908367, 30.507870500126], [-91.073187908047, 30.507700500046], [-91.073275908074, 30.507498499608], [-91.073308908092, 30.507432499954], [-91.073407907784, 30.507275499769], [-91.073786907927, 30.506670500004], [-91.07400690847, 30.506366499778], [-91.07410690819, 30.506209499178], [-91.074260908005, 30.505954499251], [-91.07435090845, 30.505792499474], [-91.074393907933, 30.50569149912], [-91.074417908262, 30.505622499318], [-91.074435908447, 30.505552499109], [-91.074455907763, 30.505373499071], [-91.074453908377, 30.505086499537], [-91.074436908382, 30.504944499264], [-91.074389908251, 30.504769499567], [-91.074365908352, 30.504701499127], [-91.074266907781, 30.504504499064], [-91.074210908312, 30.504408498978], [-91.074130908491, 30.504283499167], [-91.074098908126, 30.504217499112], [-91.073981907898, 30.504028499142], [-91.073884908105, 30.503911498742], [-91.073825908033, 30.503862499224], [-91.073791908373, 30.503840498823], [-91.073613908308, 30.503748498837], [-91.07354690819, 30.503706498854], [-91.073419907305, 30.503613499093], [-91.073263907323, 30.503487498783], [-91.072840907924, 30.503148498617], [-91.072105907303, 30.502510498885], [-91.071967907089, 30.50237649873], [-91.071807907133, 30.50221149875], [-91.071603907141, 30.501985498638], [-91.071362907314, 30.50173949831], [-91.071167906781, 30.501554498878], [-91.071114906949, 30.501499498628], [-91.070988906578, 30.501405498954], [-91.070952907055, 30.501387499014], [-91.070851907256, 30.501325499059], [-91.070672907064, 30.501233498461], [-91.070596907281, 30.501202498724], [-91.07051990674, 30.501176498913], [-91.070439906825, 30.501156499057], [-91.069706907134, 30.501027498547], [-91.069581906679, 30.501020498397], [-91.06927890645, 30.501030498818], [-91.068736906001, 30.501026498897], [-91.068528906365, 30.501018498257], [-91.068445905813, 30.501021498392], [-91.068282906532, 30.501049498698], [-91.068203906468, 30.501071498799], [-91.068081906259, 30.501094498754], [-91.067961906286, 30.501122499153], [-91.067796905967, 30.501144498814], [-91.067672906462, 30.501146498785], [-91.067507906046, 30.501133498812], [-91.067299906414, 30.501130499101], [-91.066801905558, 30.501101498651], [-91.066512906251, 30.501067499197], [-91.066185905802, 30.501016498731], [-91.065895905486, 30.500986498375], [-91.065646905568, 30.50098049862], [-91.065272905952, 30.500990498676], [-91.064942905672, 30.501022499017], [-91.064861905586, 30.501041499109], [-91.064665905546, 30.501102498663], [-91.064206905127, 30.501273498916], [-91.063791904764, 30.501441498527], [-91.063541905465, 30.501570498732], [-91.063283904936, 30.501686498693], [-91.063015905031, 30.501786499423], [-91.062975905251, 30.5017964992], [-91.06281190524, 30.501819498688], [-91.06264490474, 30.501831499255], [-91.062312904892, 30.501842498767], [-91.062104905075, 30.501834498859], [-91.06189690463, 30.50183549944], [-91.061730904759, 30.501830498761], [-91.061605904188, 30.501832499113], [-91.061564904983, 30.501836499475], [-91.061192904685, 30.501848499208], [-91.061109904803, 30.501847499492], [-91.06069690431, 30.501858498785], [-91.060646904253, 30.501856498716], [-91.060573904687, 30.501854499033], [-91.060201904096, 30.501821499109], [-91.059918904116, 30.501764499462], [-91.059839904504, 30.501743499383], [-91.059612903938, 30.501653499047], [-91.059457903686, 30.50160149896], [-91.059268904084, 30.501525499164], [-91.059190903415, 30.501500499197], [-91.059120903454, 30.501461499456], [-91.059080903476, 30.501451499244], [-91.059003903297, 30.501424499554], [-91.058894903924, 30.501373498931], [-91.058703903689, 30.501299499466], [-91.058586903194, 30.501263498682], [-91.058546903704, 30.5012544987], [-91.058423904114, 30.50123649868], [-91.058299903852, 30.501225499208], [-91.058175903662, 30.501223499537], [-91.057884903075, 30.501247498895], [-91.057721903184, 30.501271499063], [-91.057472902936, 30.501295499289], [-91.057310902895, 30.501328499148], [-91.057229902855, 30.501340499045], [-91.057148903462, 30.501357499048], [-91.056989903682, 30.501400498771], [-91.056519902717, 30.501547499538], [-91.056398903048, 30.501572498818], [-91.056315902978, 30.501579499227], [-91.056232903074, 30.501574499395], [-91.056131903264, 30.50164249942], [-91.055927903303, 30.501766499363], [-91.055613903072, 30.501943499114], [-91.05543590302, 30.502036499219], [-91.05529890276, 30.502117499347], [-91.055047902543, 30.50230649948], [-91.054865902277, 30.502452499419], [-91.054752902452, 30.502545499147], [-91.054696902655, 30.502592499772], [-91.05409390295, 30.503134499859], [-91.053706902272, 30.503507499726], [-91.053315902047, 30.503827499907], [-91.05318990189, 30.503919500136], [-91.05264090181, 30.50430450034], [-91.052574902057, 30.504347499823], [-91.052368902167, 30.504467500118], [-91.052153901865, 30.504576500119], [-91.051926901597, 30.504662500443], [-91.051770901756, 30.504712500277], [-91.051297901651, 30.504854500222], [-91.050862901311, 30.504975500121], [-91.050627901403, 30.50505050029], [-91.050356901326, 30.50514350046], [-91.050238901453, 30.505188500203], [-91.050129901863, 30.505231500279], [-91.049242901492, 30.505616500396], [-91.048751900691, 30.505806500188], [-91.048596901442, 30.505859500495], [-91.048267900908, 30.505959500587], [-91.047748900919, 30.50609150028], [-91.047352901127, 30.506202500313], [-91.046761900747, 30.506347500748], [-91.046750900194, 30.506350500649], [-91.04630290097, 30.506427500639], [-91.046220900857, 30.506436500372], [-91.045893899984, 30.506484500241], [-91.045529899861, 30.506556500377], [-91.045329900305, 30.506607501033], [-91.045212899953, 30.506644500748], [-91.044873899993, 30.506775500763], [-91.044763900412, 30.50682350069], [-91.044620899629, 30.506894500654], [-91.04443690059, 30.506973500689], [-91.044249899831, 30.507047500979], [-91.044176899972, 30.507080500508], [-91.043795899864, 30.507214500959], [-91.043644900197, 30.507271501255], [-91.043528900006, 30.507310500642], [-91.043127899415, 30.507411501122], [-91.042965899995, 30.507443501043], [-91.042551899873, 30.507475501162], [-91.042051899283, 30.507492500618], [-91.04192689994, 30.507491501072], [-91.041802899044, 30.507481500997], [-91.041721899066, 30.507469500972], [-91.041515899382, 30.507448500547], [-91.041359899246, 30.50740150075], [-91.041291899725, 30.507359501199], [-91.041269899089, 30.507342501038], [-91.041228898939, 30.507312500772], [-91.041064899371, 30.507150501228], [-91.040960898851, 30.507038501109], [-91.040896898629, 30.506946500589], [-91.040858899328, 30.506882500779], [-91.04067089885, 30.506522501159], [-91.040560899006, 30.506328500511], [-91.040390898958, 30.506043500994], [-91.040221898912, 30.505776500557], [-91.040179898507, 30.505709500415], [-91.04013689909, 30.50564250075], [-91.04009389869, 30.505575501068], [-91.039788898699, 30.505153500641], [-91.039675898995, 30.505005500579], [-91.039367898536, 30.50454150037], [-91.039312898487, 30.504445500295], [-91.039275899016, 30.504380500002], [-91.03885189806, 30.503598500492], [-91.038376898328, 30.502800500369], [-91.03823489786, 30.502582499804], [-91.037974898581, 30.502217500185], [-91.037797898122, 30.501976500372], [-91.037564898486, 30.501682499605], [-91.037520898165, 30.501621500018], [-91.037373898112, 30.501449499892], [-91.036910897604, 30.500986499757], [-91.03674289785, 30.500826499858], [-91.036598897951, 30.50069749987], [-91.036462897755, 30.5005835001], [-91.036330897452, 30.500472499515], [-91.036083897314, 30.500280500093], [-91.035948897472, 30.500143499309], [-91.035924897707, 30.500114499838], [-91.035770897143, 30.499860499523], [-91.03541589765, 30.499465499121], [-91.035365897148, 30.499420499665], [-91.035243896931, 30.49930949972], [-91.035121896962, 30.499163499439], [-91.034998897656, 30.498976499617], [-91.034846897582, 30.498708498942], [-91.034816897539, 30.498655499741], [-91.03477689704, 30.498592499296], [-91.03466689749, 30.498360499042], [-91.034544897091, 30.498156498828], [-91.034418896556, 30.497892499232], [-91.034257897014, 30.49760249947], [-91.033986896616, 30.497243498664], [-91.033914897128, 30.497157499475], [-91.033833897065, 30.497076498981], [-91.033566896885, 30.496850499124], [-91.033434896828, 30.496763498639], [-91.033295896745, 30.496685499222], [-91.033240896268, 30.496659498672], [-91.033000896845, 30.496549499004], [-91.032413896513, 30.496346498994], [-91.032229896386, 30.496282499038], [-91.032180406065, 30.496269816991], [-91.032069896777, 30.496241498481], [-91.031140896023, 30.496048498839], [-91.03086389622, 30.495970499142], [-91.030604895473, 30.495857499189], [-91.030395895303, 30.495738498985], [-91.030297896037, 30.495672498454], [-91.030032896012, 30.495443499251], [-91.030023895417, 30.495435498921], [-91.029812895153, 30.495228499095], [-91.02976089547, 30.495172498453], [-91.029691895286, 30.495108498925], [-91.029429895166, 30.494831499053], [-91.029330895468, 30.494716498714], [-91.029302895954, 30.494689498607], [-91.029160895126, 30.494513498848], [-91.028696895509, 30.493919498734], [-91.028523895572, 30.493673498471], [-91.028359895541, 30.493512498137], [-91.028263895471, 30.493443498569], [-91.028149895067, 30.493401498744], [-91.028030895368, 30.493370498845], [-91.027910895, 30.493345498898], [-91.027788895002, 30.493326498397], [-91.027747894567, 30.493325498036], [-91.027666895317, 30.493313498349], [-91.027458894478, 30.49331349849], [-91.026835894424, 30.493324498203], [-91.02666989487, 30.493321498485], [-91.026381894456, 30.493295498787], [-91.026259894807, 30.49327649868], [-91.026180894494, 30.493257498153], [-91.026102895001, 30.493230498547], [-91.026029894258, 30.493197498212], [-91.025879894214, 30.49313849811], [-91.025740894732, 30.493061498259], [-91.025668894163, 30.493026498355], [-91.025602894381, 30.492983498384], [-91.025543894355, 30.492933498365], [-91.025488894239, 30.492880498321], [-91.025371894441, 30.49277949828], [-91.025289894513, 30.492698498214], [-91.025169894322, 30.49255249848], [-91.025018894379, 30.492299498676], [-91.024895894609, 30.491996498181], [-91.024844893893, 30.491860497816], [-91.024835894644, 30.491825498178], [-91.024739894513, 30.491552498333], [-91.024659894292, 30.491349498459], [-91.024609893666, 30.491250497804], [-91.02449589437, 30.491058497702], [-91.024423893799, 30.490952497873], [-91.024348893448, 30.490841498037], [-91.0242618935, 30.490704497725], [-91.024197894267, 30.490612497634], [-91.023641893265, 30.489855498042], [-91.023397893712, 30.489564497944], [-91.022941893913, 30.488965497893], [-91.022880893563, 30.488916497733], [-91.022844893719, 30.488898497236], [-91.022826893001, 30.488830497504], [-91.022787893762, 30.488727497758], [-91.022722893066, 30.488635497249], [-91.022650892906, 30.488548497586], [-91.022621893878, 30.488522497664], [-91.022571893301, 30.488465497462], [-91.022232893443, 30.488148497948], [-91.022114893235, 30.488046497525], [-91.022017893454, 30.487979497143], [-91.02164589284, 30.487748497637], [-91.021535893277, 30.487698497369], [-91.021308892717, 30.487608497543], [-91.020903893119, 30.487525497564], [-91.020697892395, 30.487499497692], [-91.020655892372, 30.487500497166], [-91.020532892421, 30.487490497444], [-91.02045089259, 30.487479497651], [-91.020409892526, 30.487479497211], [-91.020081892323, 30.487436497821], [-91.019838892514, 30.487385497413], [-91.019680892559, 30.487339497103], [-91.01950989271, 30.487265497054], [-91.019457892328, 30.487243497578], [-91.019205891881, 30.487116497708], [-91.019095892159, 30.487066497201], [-91.017822892457, 30.486530496915], [-91.017555891529, 30.486429497287], [-91.017209891873, 30.486308497095], [-91.017090891691, 30.486275497292], [-91.016929891991, 30.486244496972], [-91.016851891856, 30.48622249743], [-91.016731891523, 30.486196497691], [-91.016609892072, 30.486176497245], [-91.01644389175, 30.486165497719], [-91.016195891999, 30.486160496889], [-91.016071891964, 30.486167497367], [-91.015989891136, 30.486177497729], [-91.015827891413, 30.486210497444], [-91.015748891443, 30.486232496996], [-91.015443891576, 30.486343497823], [-91.015369891076, 30.48637749769], [-91.015157891695, 30.486490497498], [-91.014857891621, 30.48668049707], [-91.014827890936, 30.486705497927], [-91.014761891571, 30.486749497229], [-91.014432890979, 30.487024497634], [-91.014258890808, 30.487178497402], [-91.014070891223, 30.487320498083], [-91.014036890915, 30.487340497946], [-91.013848890605, 30.487417497761], [-91.013599891179, 30.487432497599], [-91.01339289047, 30.487417497319], [-91.013189891009, 30.487377497374], [-91.012951890705, 30.487312498063], [-91.012789890887, 30.48727949762], [-91.012350890569, 30.487170497805], [-91.012149890237, 30.487126497716], [-91.011817890294, 30.48709749803], [-91.011693890856, 30.487095498051], [-91.011569890585, 30.487109497993], [-91.011374890198, 30.487170497986], [-91.011254889934, 30.48723249756], [-91.011125889911, 30.487322497953], [-91.010918890048, 30.48749849747], [-91.010830889662, 30.487620497415], [-91.010739890487, 30.487782497745], [-91.010642890376, 30.488018498304], [-91.010613890481, 30.488123498108], [-91.010606889714, 30.488231497728], [-91.010611889745, 30.488482497652], [-91.010599890642, 30.488661497896], [-91.010581890133, 30.488731497992], [-91.010538890413, 30.488831497707], [-91.010436889904, 30.488988497816], [-91.010366889795, 30.489077498475], [-91.010195889756, 30.48928049793], [-91.009932889596, 30.489578498511], [-91.009843889944, 30.489680498185], [-91.009576889849, 30.489956498473], [-91.009242889494, 30.490275498183], [-91.009183890205, 30.49032649835], [-91.008725889604, 30.490637498227], [-91.008429890082, 30.490767498865], [-91.008357889735, 30.490803498678], [-91.008282889471, 30.490832498232], [-91.008123889671, 30.490873499031], [-91.007966889936, 30.490919498418], [-91.007764889314, 30.490961498977], [-91.007641889856, 30.490975498599], [-91.007516889942, 30.490979498241], [-91.00739288917, 30.490975498862], [-91.007351889651, 30.490969498319], [-91.007227889704, 30.490960498611], [-91.007106889137, 30.490935498943], [-91.006831888763, 30.490858498265], [-91.006529888854, 30.490744498662], [-91.006383888734, 30.490676498929], [-91.006172888742, 30.490564498607], [-91.006104889382, 30.490523498233], [-91.005646888873, 30.490280498889], [-91.005579888835, 30.490239498911], [-91.005542888376, 30.490222498841], [-91.005441888397, 30.490161498642], [-91.004452888234, 30.489506498725], [-91.004161888742, 30.489303498327], [-91.003748887968, 30.48900049835], [-91.003659888211, 30.488925498548], [-91.003350887946, 30.488644498095], [-91.003116888248, 30.488432498594], [-91.002577887779, 30.487986497923], [-91.002357887686, 30.487821498372], [-91.001882887987, 30.487419498233], [-91.001828888048, 30.487365498455], [-91.001624887438, 30.487137498268], [-91.001564887621, 30.48704349811], [-91.001453887886, 30.486811498282], [-91.001329887393, 30.486467497873], [-91.001256887856, 30.486187497423], [-91.001148887666, 30.485954498091], [-91.000989887373, 30.485661497335], [-91.00085688781, 30.48547849812], [-91.000737887795, 30.485330497364], [-91.000625887028, 30.485225497829], [-91.000591886779, 30.485204497784], [-91.000396886873, 30.485141497244], [-91.000317887169, 30.48511949805], [-91.000276886901, 30.485115497895], [-91.000110887195, 30.485112497288], [-90.999944887288, 30.485101497798], [-90.999821887108, 30.485122497454], [-90.999460887011, 30.485209497514], [-90.999254886846, 30.485232498149], [-90.999171887199, 30.485225497748], [-90.999130887104, 30.485216497955], [-90.999052887214, 30.485191497532], [-90.998900886545, 30.485135497954], [-90.998790886446, 30.485086498042], [-90.998286887152, 30.484845497918], [-90.99814688633, 30.484768497842], [-90.997892886754, 30.484651497613], [-90.997731886785, 30.484553497731], [-90.997654886621, 30.484528497209], [-90.997617886256, 30.48451249799], [-90.997550886384, 30.484470497969], [-90.997474886221, 30.484441497384], [-90.997402886461, 30.48440549781], [-90.997362886239, 30.484398497192], [-90.997326886649, 30.484379497433], [-90.99726388631, 30.484334497207], [-90.997227886762, 30.48431549742], [-90.997153885818, 30.484285497721], [-90.997123885946, 30.484261497627], [-90.9970898865, 30.484241497976], [-90.997048886735, 30.484233497932], [-90.996915886223, 30.484151497903], [-90.996877885964, 30.484136497232], [-90.99683688626, 30.484128497122], [-90.996799886685, 30.484114497568], [-90.996695886608, 30.484055497249], [-90.996582886462, 30.484012497453], [-90.996514886162, 30.483971497458], [-90.996418886373, 30.483905497355], [-90.99638388626, 30.483885497678], [-90.996344886521, 30.483873497306], [-90.996276886141, 30.483833497585], [-90.996211886572, 30.483789497566], [-90.996138886538, 30.483754497851], [-90.996061885581, 30.483728497796], [-90.995849886304, 30.483615497611], [-90.995660886268, 30.483542497755], [-90.995482885636, 30.483449497897], [-90.995450885329, 30.483426497217], [-90.995414886176, 30.48340849733], [-90.995373886047, 30.483403497057], [-90.995335885542, 30.483387497343], [-90.995272885691, 30.483342497055], [-90.995168885242, 30.48328349732], [-90.995126885484, 30.483281497416], [-90.995090886157, 30.483264497837], [-90.995000885404, 30.483190497108], [-90.994891885191, 30.483137497583], [-90.994827885818, 30.483092497228], [-90.994722885725, 30.483034497684], [-90.99464688511, 30.483006497659], [-90.994583885813, 30.482961497037], [-90.994441886001, 30.482886497684], [-90.994290885203, 30.482826497329], [-90.99426688519, 30.482811497498], [-90.994222885618, 30.482785497041], [-90.994193885285, 30.482759497132], [-90.994116885151, 30.482731496943], [-90.994081885621, 30.482712497048], [-90.993989885318, 30.482638497704], [-90.993933885672, 30.482586497494], [-90.993855885036, 30.482501497104], [-90.993630884838, 30.482288497627], [-90.993607884942, 30.482259497361], [-90.993530885084, 30.482131497515], [-90.993499884866, 30.482065497096], [-90.99341288516, 30.481713497543], [-90.993408884986, 30.481497496654], [-90.99344488537, 30.481320496823], [-90.993518885569, 30.481077496959], [-90.993530885368, 30.481006496717], [-90.993543885029, 30.480827497397], [-90.993553885363, 30.480755497026], [-90.993686884874, 30.480340496823], [-90.993711885677, 30.480234496996], [-90.993717885668, 30.480126497202], [-90.993687884781, 30.479913496524], [-90.993668885217, 30.47955449637], [-90.993651885054, 30.479448496938], [-90.993638885019, 30.479392497096], [-90.999478255747, 30.478662187219], [-91.000383047631, 30.478548942374], [-91.000835442278, 30.478492317629], [-91.00128783745, 30.478435691338], [-91.001357535323, 30.47842696729], [-91.001365467866, 30.478351147135], [-91.001373400394, 30.478275327879], [-91.001425398406, 30.477955666797], [-91.001477397122, 30.477636006568], [-91.001617106055, 30.476705898934], [-91.001929012818, 30.474744260593], [-91.001960026869, 30.474554442493], [-91.00207175655, 30.473860646842], [-91.00225630786, 30.47261375341], [-91.002357237882, 30.471931818555], [-91.002542864915, 30.470699663033], [-91.002648166926, 30.470032132038], [-91.003012090388, 30.467525926321], [-91.003160342083, 30.467513151371], [-91.003400977084, 30.467490837212], [-91.003641611976, 30.467468522616], [-91.003947819143, 30.467435265406], [-91.004254027144, 30.467402008392], [-91.00628337676, 30.467090860603], [-91.013446266565, 30.465939709227], [-91.027013388961, 30.463782572345], [-91.029861914833, 30.463332468692], [-91.032571730701, 30.462904222785], [-91.03528152423, 30.462475920411], [-91.03519640045, 30.462157136462], [-91.035006364224, 30.461445449566], [-91.034931271655, 30.461169083822], [-91.034875751175, 30.461177322625], [-91.034820230685, 30.461185561405], [-91.034488669401, 30.461199061952], [-91.034018094066, 30.460868158603], [-91.033941223032, 30.46077477112], [-91.03381286031, 30.460592074043], [-91.033540174535, 30.460011401164], [-91.033298523685, 30.459644632059], [-91.033203652847, 30.459547638266], [-91.033137668683, 30.459475801272], [-91.033046806122, 30.459421829355], [-91.03298683948, 30.459412731958], [-91.032926871808, 30.459403634532], [-91.032893885263, 30.459401024771], [-91.032359653762, 30.459355613826], [-91.032194802424, 30.459312360128], [-91.032114343133, 30.459256297682], [-91.032050293313, 30.459211668519], [-91.031844081141, 30.45899255109], [-91.031699071609, 30.45880631204], [-91.031365995582, 30.458378531537], [-91.030878359913, 30.457921452704], [-91.030117174809, 30.457663411327], [-91.029746401617, 30.457538403221], [-91.028418484679, 30.457090677904], [-91.028102439094, 30.456951617844], [-91.027906490969, 30.456831520967], [-91.027710543318, 30.456711423795], [-91.027495633419, 30.456395378851], [-91.027053170238, 30.455801214432], [-91.027053170122, 30.454865721914], [-91.027051416347, 30.454734202761], [-91.027027886736, 30.452969452698], [-91.027154304328, 30.452312079327], [-91.02755884187, 30.45203395935], [-91.027900170854, 30.451806407126], [-91.028393200423, 30.451679988792], [-91.028754539662, 30.451390917998], [-91.028898872276, 30.451275452027], [-91.029316051727, 30.451111108071], [-91.029986066735, 30.450820347121], [-91.030157145701, 30.450649268296], [-91.030213619061, 30.450592794881], [-91.030694007894, 30.450365241888], [-91.030769858251, 30.450251466395], [-91.031070627958, 30.450009393349], [-91.031371396198, 30.449767319601], [-91.031781972826, 30.449478052424], [-91.03244117094, 30.449013614508], [-91.03341199389, 30.448304629688], [-91.033582658438, 30.44817189106], [-91.033753322533, 30.448039151305], [-91.033980874985, 30.447862166721], [-91.034018800277, 30.447558763526], [-91.034056725337, 30.447255360293], [-91.034208427118, 30.447002524394], [-91.034654602205, 30.446809098114], [-91.034634143958, 30.446726195717], [-91.034573830969, 30.446481784803], [-91.034513518276, 30.446237373844], [-91.034425108396, 30.445935517016], [-91.034285278652, 30.445561107567], [-91.034014288612, 30.445732683921], [-91.033183350234, 30.446347139978], [-91.031869444356, 30.4472941761], [-91.030881770939, 30.448027075063], [-91.029928098, 30.448726018933], [-91.029449080579, 30.449069142508], [-91.028920067192, 30.449401381117], [-91.028344919884, 30.449713392098], [-91.027752689026, 30.450038644229], [-91.027206691183, 30.450309077516], [-91.026197252548, 30.450849761877], [-91.025348549364, 30.4512933611], [-91.024618852657, 30.451648495909], [-91.017596647023, 30.455372413177], [-91.010229454841, 30.459230164613], [-91.008343114849, 30.460217926484], [-91.008407252139, 30.457247495501], [-91.008408197724, 30.455994678909], [-91.008393459119, 30.455045623128], [-91.008334178374, 30.454068669962], [-91.008333547559, 30.454049851018], [-91.008321772621, 30.453698601637], [-91.008338493755, 30.453378651363], [-91.008402521171, 30.452969543788], [-91.008437786892, 30.452679900188], [-91.008435680667, 30.452388100796], [-91.008392941291, 30.452074874566], [-91.008281272492, 30.451616398144], [-91.008143229976, 30.451211294195], [-91.007998143983, 30.450782303661], [-91.007917585249, 30.450310511878], [-91.007878480637, 30.449954242399], [-91.007725855956, 30.448398364265], [-91.007683301411, 30.447970955077], [-91.007663945308, 30.447197652697], [-91.007599911084, 30.444837410319], [-91.00756044323, 30.443196409923], [-91.007557862829, 30.442408075774], [-91.008287314678, 30.44220585911], [-91.012913637196, 30.441036993888], [-91.015700784711, 30.44033271416], [-91.024354284952, 30.438183586651], [-91.024669143421, 30.438103591722], [-91.025899172255, 30.43779107306], [-91.026545757015, 30.437626787827], [-91.030908323606, 30.436562338855], [-91.036319946118, 30.43520101921], [-91.037275587206, 30.434962351595], [-91.037486463678, 30.434909684444], [-91.037697340966, 30.434857016959], [-91.038522051552, 30.434655964874], [-91.039346758801, 30.434454906731], [-91.04017146167, 30.434253843432], [-91.040996162236, 30.434052775883], [-91.043916330627, 30.433317530421], [-91.04712703212, 30.432509047276], [-91.05663353137, 30.430114689753], [-91.056170021791, 30.428723955083], [-91.056079108637, 30.428467780494], [-91.05593640953, 30.428065684019], [-91.055669107035, 30.427569955326], [-91.055128002698, 30.427192437843], [-91.054540792399, 30.426917647907], [-91.05353020498, 30.426600359498], [-91.053134741477, 30.426432315843], [-91.053105823647, 30.426413240382], [-91.052567520956, 30.426058158507], [-91.052508623663, 30.425999875009], [-91.052253391425, 30.425747306836], [-91.051998547159, 30.425394628096], [-91.051939340104, 30.425284284247], [-91.051762190856, 30.424954132156], [-91.05172099132, 30.424831334441], [-91.051701542501, 30.424773365507], [-91.051638203567, 30.424499393072], [-91.051636125655, 30.424473050412], [-91.051590447161, 30.42389391694], [-91.051583098835, 30.422430233043], [-91.051583441828, 30.422279623948], [-91.051586644603, 30.420874123084], [-91.051587976585, 30.420289433096], [-91.051575772891, 30.419420450832], [-91.051569873011, 30.419072003944], [-91.051553321135, 30.418094355545], [-91.051554355935, 30.417691864739], [-91.051564618884, 30.415967973041], [-91.051553182883, 30.411113308503], [-91.051546860259, 30.408844756279], [-91.051515765022, 30.40594537943], [-91.051522485205, 30.405900936875], [-91.051579807037, 30.405521827823], [-91.051660884094, 30.40513058026], [-91.051985600569, 30.403972521948], [-91.052169333475, 30.403317263215], [-91.052254802834, 30.403058598601], [-91.052284142776, 30.402969802177], [-91.052776761364, 30.401426684432], [-91.052891903832, 30.401093861663], [-91.053118636822, 30.400289841574], [-91.053202084881, 30.400030595421], [-91.053216441838, 30.399999647968], [-91.053381642559, 30.399643534928], [-91.053693107295, 30.399348426684], [-91.053864113306, 30.399210853758], [-91.054041085028, 30.399117297322], [-91.054177624527, 30.399044898665], [-91.059511592945, 30.404898344449], [-91.061277034569, 30.406828370617], [-91.061384082824, 30.406928105966], [-91.061565797659, 30.407051332741], [-91.063266799774, 30.408399417673], [-91.067823580068, 30.413782568813], [-91.068948804666, 30.415223868888], [-91.069735963372, 30.416281956267], [-91.069859211862, 30.416486987793], [-91.070202872645, 30.416967292853], [-91.070546535711, 30.417447596952], [-91.071233871816, 30.418408202277], [-91.071560606751, 30.418864830752], [-91.07324339981, 30.42121654135], [-91.074745590775, 30.423315746987], [-91.07507263285, 30.423772750078], [-91.076530235936, 30.425810138575], [-91.079181810862, 30.429516161986], [-91.080713016015, 30.431656128013], [-91.080766251232, 30.431730026538], [-91.080819487569, 30.431803925042], [-91.083728861724, 30.435842337982], [-91.08386034016, 30.436024828593], [-91.084456862539, 30.436870897053], [-91.084804469898, 30.437363921297], [-91.085365351294, 30.438147201009], [-91.086842137239, 30.440209559816], [-91.08893482949, 30.443221640596], [-91.090301436406, 30.445077931437], [-91.092114712015, 30.447620394304], [-91.092141367402, 30.447657937884], [-91.092631345911, 30.448348073922], [-91.093111639575, 30.449024568998], [-91.093543181164, 30.449632375151], [-91.094104193508, 30.450422536673], [-91.094172804769, 30.45051916793], [-91.094850351193, 30.451473429203], [-91.095096775397, 30.45182049543], [-91.095463027325, 30.452336314852], [-91.09582928202, 30.452852132279], [-91.099393130582, 30.45230895635], [-91.099796409878, 30.452247491444], [-91.100916978104, 30.452106728445], [-91.101712921813, 30.452056459948], [-91.102508863674, 30.452006186659], [-91.104341823457, 30.451955741558], [-91.106174781376, 30.451905271053], [-91.108796874377, 30.451827920012], [-91.110310060169, 30.451783281674], [-91.112115951461, 30.45172307245], [-91.112132542308, 30.451722525575], [-91.114776671116, 30.451635251167], [-91.11546430641, 30.451612545531], [-91.116151941388, 30.451589837221], [-91.1169733562, 30.451562703955], [-91.117527210404, 30.451544408072], [-91.119891365224, 30.451466263533], [-91.121883995335, 30.451400398356], [-91.122867026317, 30.451367884863], [-91.123617078373, 30.451341163268], [-91.125126883989, 30.451287350933], [-91.126896224755, 30.451224287999], [-91.127433919536, 30.451205115345], [-91.128580931123, 30.451159099361], [-91.12892979715, 30.451145103784], [-91.129921594648, 30.451105305915], [-91.130487103096, 30.451087066604], [-91.132769239642, 30.451013460762], [-91.132991305445, 30.451006294734], [-91.13390585001, 30.450976784294], [-91.134731372689, 30.450950139612], [-91.134950012426, 30.450943082422], [-91.135430052607, 30.450927585818], [-91.137207043289, 30.450876166734], [-91.137564424184, 30.450865822548], [-91.137954142425, 30.450854541904], [-91.138476153875, 30.450839429107], [-91.139056944348, 30.450822612683], [-91.139046801826, 30.450599778913], [-91.139036659348, 30.450376946031], [-91.138960477544, 30.448703111143], [-91.138884297269, 30.447029275399], [-91.138804953229, 30.445285936984], [-91.138800450733, 30.445186341608], [-91.138727902725, 30.444888426608], [-91.138587330446, 30.444495483666], [-91.13955913686, 30.444491200955], [-91.142087101652, 30.44444187993], [-91.142593805657, 30.444431988797], [-91.143100509563, 30.44442209482], [-91.149411544471, 30.444280473075], [-91.15190625804, 30.444224515158], [-91.154400969838, 30.444168509281], [-91.156670393196, 30.444125565921], [-91.156923192144, 30.444119269475], [-91.161419437625, 30.444002653841], [-91.162322439734, 30.443975584056], [-91.162236631716, 30.441647917628], [-91.162249889933, 30.441344159944], [-91.162237498857, 30.440808208572], [-91.162170691769, 30.438693258272], [-91.163620714123, 30.438660152482], [-91.16542521687, 30.438617221074], [-91.166223231739, 30.438598227339], [-91.166893613169, 30.438580880493], [-91.167563993322, 30.43856353115], [-91.168904755009, 30.438528820467], [-91.16884024057, 30.436616099438], [-91.168833083036, 30.436403889252], [-91.168825925532, 30.436191679053], [-91.168809154707, 30.435694431356], [-91.16875538172, 30.435278644297], [-91.168732927449, 30.435139296934], [-91.168687238864, 30.434953819709], [-91.16863346608, 30.434812097826], [-91.168552606634, 30.434598983825], [-91.168486199337, 30.434348731896], [-91.168447979776, 30.43420470734], [-91.168438211533, 30.434162878214], [-91.168430164571, 30.434120774294], [-91.168423848167, 30.434078449716], [-91.16841927056, 30.434035957715], [-91.168416436863, 30.433993351519], [-91.168415352192, 30.433950684358], [-91.168416016452, 30.433908011259], [-91.168418430593, 30.433865385446], [-91.168422589319, 30.433822861037], [-91.168428489416, 30.433780491251], [-91.168436121423, 30.433738330201], [-91.168445476921, 30.433696430196], [-91.168456544371, 30.433654844446], [-91.168469310148, 30.433613626156], [-91.168483756466, 30.433572826721], [-91.168499865545, 30.433532496635], [-91.168517618554, 30.433492689098], [-91.168536991468, 30.433453452791], [-91.168557960261, 30.433414836396], [-91.168580499862, 30.433376891301], [-91.168604578964, 30.433339662568], [-91.168657238756, 30.433267546187], [-91.169155337957, 30.432615626655], [-91.169286992971, 30.432443313559], [-91.169556952943, 30.432091542569], [-91.169572333328, 30.432065313702], [-91.169586637014, 30.432038631555], [-91.169599847288, 30.432011529486], [-91.169611948482, 30.431984040853], [-91.169622924926, 30.431956199916], [-91.169632761989, 30.431928040936], [-91.169641449204, 30.431899599082], [-91.169648974021, 30.431870910421], [-91.169655328056, 30.431842009223], [-91.169660503963, 30.431812932464], [-91.169664494397, 30.431783715317], [-91.169667295133, 30.431754394761], [-91.169668901951, 30.431725006875], [-91.169669313749, 30.431695588644], [-91.169668529427, 30.431666176148], [-91.16966654997, 30.431636804571], [-91.169659016855, 30.431578335735], [-91.169643605441, 30.431508516154], [-91.169614638275, 30.431422848223], [-91.169576183913, 30.431341986562], [-91.16946479601, 30.43115158023], [-91.169340020643, 30.430938286668], [-91.169287895435, 30.430839725315], [-91.169244646289, 30.430732059399], [-91.169223088242, 30.43066035579], [-91.1690985722, 30.430185222577], [-91.16904015791, 30.429930053355], [-91.168976425019, 30.42981294141], [-91.16893931704, 30.429673425001], [-91.168874751123, 30.429451037869], [-91.16868067219, 30.428871042301], [-91.16865541169, 30.428800914402], [-91.168593245811, 30.428589553532], [-91.168551910267, 30.428383635596], [-91.168529290943, 30.428201216804], [-91.1685150876, 30.427970050833], [-91.168513396254, 30.427733482523], [-91.168543650261, 30.427535528947], [-91.16860779702, 30.427115816655], [-91.168618914304, 30.427043076485], [-91.168675058201, 30.426827666375], [-91.168669529014, 30.426570712414], [-91.168667828339, 30.426339561922], [-91.168642598722, 30.425218099206], [-91.168638821226, 30.424983334089], [-91.168628495016, 30.424771314995], [-91.168604210401, 30.424553424868], [-91.168597143739, 30.424504997544], [-91.168590077085, 30.424456569318], [-91.16852792229, 30.424067141949], [-91.16852101062, 30.424023838653], [-91.168519783756, 30.424015455849], [-91.168510461935, 30.423939172014], [-91.168508084665, 30.423884496365], [-91.168507296583, 30.42386637339], [-91.168510146607, 30.423787360581], [-91.168519406397, 30.423709721517], [-91.16852704057, 30.423672037394], [-91.168534674737, 30.423634353271], [-91.168558048957, 30.423553790092], [-91.168586914842, 30.423478344965], [-91.168611114796, 30.42342768062], [-91.168622083525, 30.423404717266], [-91.168653864972, 30.423348696751], [-91.168692937522, 30.423289184314], [-91.168720470676, 30.423250271054], [-91.168849929538, 30.423068929851], [-91.169167619343, 30.422623918109], [-91.169371624465, 30.422345857063], [-91.169742817445, 30.421839912049], [-91.170723609547, 30.420503043308], [-91.171166831123, 30.419898893999], [-91.171203891057, 30.419851384164], [-91.171238878391, 30.419802708987], [-91.171271745136, 30.419752936069], [-91.171302445385, 30.419702133912], [-91.171330935306, 30.41965037373], [-91.171357176271, 30.419597728545], [-91.171381131733, 30.419544271384], [-91.171422055568, 30.419435218663], [-91.171432322187, 30.419408100083], [-91.171449135827, 30.419352921099], [-91.171455656692, 30.419324944557], [-91.171464876198, 30.419268435617], [-91.17177393438, 30.416746449966], [-91.170914643418, 30.416659344356], [-91.170908129174, 30.41665783077], [-91.170901681871, 30.416656117003], [-91.170895309832, 30.41665420577], [-91.1708890193, 30.416652097983], [-91.170882820678, 30.416649797261], [-91.170876719165, 30.41664730722], [-91.170870725168, 30.416644628775], [-91.170864844921, 30.416641767345], [-91.170859086748, 30.41663872655], [-91.170853456887, 30.416635509104], [-91.170847962618, 30.416632119525], [-91.170842612259, 30.416628562334], [-91.170837411009, 30.416624842049], [-91.170832366145, 30.416620963188], [-91.170827483903, 30.416616931173], [-91.170822771561, 30.416612751423], [-91.170818233276, 30.416608427554], [-91.170813876322, 30.41660396679], [-91.170809705896, 30.416599373648], [-91.170805727192, 30.416594654449], [-91.170801944362, 30.416589815514], [-91.170798363642, 30.416584863164], [-91.170794989185, 30.416579802817], [-91.170791825145, 30.416574641695], [-91.170788875672, 30.416569386118], [-91.17078614388, 30.416564042403], [-91.170781348905, 30.416553118547], [-91.170774137227, 30.416535756229], [-91.170766220519, 30.416518626685], [-91.1707576102, 30.416501749774], [-91.170748315601, 30.416485148059], [-91.170738350219, 30.416468842305], [-91.17072772339, 30.416452851467], [-91.170716451732, 30.416437197216], [-91.170704547706, 30.416421898511], [-91.170692025853, 30.41640697341], [-91.170678903834, 30.416392442685], [-91.170665195151, 30.416378323489], [-91.170650919553, 30.416364632989], [-91.170636093663, 30.416351389245], [-91.17062073619, 30.416338608517], [-91.170604866884, 30.416326307069], [-91.170588505496, 30.416314499356], [-91.170571671776, 30.416303201641], [-91.17055438756, 30.41629242658], [-91.170536673641, 30.416282188632], [-91.170518552898, 30.416272500453], [-91.170500048209, 30.4162633738], [-91.170481182453, 30.416254820426], [-91.170442463426, 30.416239476035], [-91.169191010984, 30.415836905359], [-91.169032193096, 30.41578596748], [-91.169017422559, 30.415780970503], [-91.169002865098, 30.415775523648], [-91.168988539438, 30.415769633252], [-91.168974463259, 30.415763307457], [-91.168960654244, 30.415756553501], [-91.168947130073, 30.415749379525], [-91.168933906344, 30.415741795472], [-91.168921001776, 30.415733810385], [-91.168908431965, 30.415725434207], [-91.168896211465, 30.415716677782], [-91.16888435587, 30.415707551953], [-91.168872880774, 30.415698068468], [-91.16886180073, 30.41568823817], [-91.168851128208, 30.415678073703], [-91.168840878797, 30.415667588619], [-91.168831063925, 30.415656795561], [-91.168821695019, 30.415645708976], [-91.168812785588, 30.415634340609], [-91.168804346015, 30.41562270671], [-91.168796387726, 30.415610820826], [-91.168788919022, 30.415598698301], [-91.168781950287, 30.415586353582], [-91.16877548982, 30.415573803819], [-91.168769546964, 30.415561063458], [-91.168764127938, 30.415548147842], [-91.168759239998, 30.415535075021], [-91.168754888323, 30.415521860337], [-91.168751080171, 30.415508520038], [-91.168747818636, 30.415495071267], [-91.168745108894, 30.415481531169], [-91.16874295404, 30.415467915986], [-91.168741356125, 30.415454243764], [-91.168740318245, 30.415440530742], [-91.168739841411, 30.415426794965], [-91.168739925596, 30.415413052669], [-91.16874057077, 30.415399320994], [-91.168741776902, 30.415385618885], [-91.168743541885, 30.415371961674], [-91.168745863608, 30.415358367399], [-91.168752164669, 30.4153314344], [-91.168782812848, 30.415067020176], [-91.168787094945, 30.414998464144], [-91.16878831404, 30.414929815894], [-91.168786466847, 30.414861178259], [-91.168781558404, 30.414792654987], [-91.168773593756, 30.414724346214], [-91.168762585226, 30.414656356598], [-91.168748550347, 30.414588786292], [-91.168711489363, 30.414455310554], [-91.168591128527, 30.414065263864], [-91.168579315666, 30.4140298864], [-91.168566062725, 30.413994895036], [-91.168551385246, 30.413960333094], [-91.168535302933, 30.413926243897], [-91.168517835492, 30.413892670769], [-91.168499005752, 30.413859655234], [-91.168478835502, 30.413827239718], [-91.168457352777, 30.413795464848], [-91.168434581449, 30.413764371247], [-91.168410552681, 30.41373399594], [-91.168385295549, 30.413704379556], [-91.168358843302, 30.413675557317], [-91.168331227101, 30.413647567149], [-91.168302482277, 30.413620443375], [-91.168272646242, 30.41359422032], [-91.168209850199, 30.413544608256], [-91.167889698317, 30.413303162885], [-91.167837334455, 30.41325867312], [-91.167786794648, 30.413212625908], [-91.167738140213, 30.413165076355], [-91.167691432455, 30.413116084979], [-91.1676467254, 30.413065708681], [-91.167604076187, 30.413014010682], [-91.167563535707, 30.412961054194], [-91.167525152771, 30.412906902425], [-91.167488975143, 30.41285162129], [-91.16745504642, 30.412795280305], [-91.167423408118, 30.412737946281], [-91.167394098627, 30.412679689628], [-91.167342607134, 30.412560694583], [-91.167182972326, 30.411944756559], [-91.166751894156, 30.410562867561], [-91.166638128178, 30.41028223049], [-91.166469471554, 30.409802650416], [-91.166412814054, 30.409598280104], [-91.166410213077, 30.409584093275], [-91.166408190889, 30.40956983501], [-91.16640675162, 30.409555524257], [-91.166405896282, 30.409541178159], [-91.166405624843, 30.409526815657], [-91.166405939357, 30.409512452994], [-91.16640683771, 30.409498109109], [-91.166408320915, 30.409483801144], [-91.166410384775, 30.409469548037], [-91.166413028222, 30.409455366928], [-91.166416248103, 30.40944127495], [-91.166420040224, 30.409427291044], [-91.166424398313, 30.409413431438], [-91.166429319216, 30.409399714171], [-91.166434794579, 30.409386156371], [-91.166440820212, 30.409372773368], [-91.166447385676, 30.409359584094], [-91.166454485742, 30.409346603876], [-91.166462108934, 30.409333848037], [-91.166470246896, 30.409321334607], [-91.166478890239, 30.409309077105], [-91.166488026446, 30.409297091753], [-91.166497646123, 30.409285393876], [-91.166507735718, 30.409273997888], [-91.166518282717, 30.409262917306], [-91.166529275649, 30.409252166548], [-91.166540698881, 30.409241758223], [-91.166552538857, 30.409231706749], [-91.16656477995, 30.409222022929], [-91.166577409646, 30.409212720281], [-91.166590409194, 30.409203809604], [-91.166603764004, 30.409195302608], [-91.166617456366, 30.409187209192], [-91.166631470651, 30.409179540164], [-91.16664578811, 30.409172304518], [-91.166660391034, 30.409165511255], [-91.166675261717, 30.409159169372], [-91.166690381411, 30.409153286063], [-91.166705731371, 30.409147869422], [-91.166721292851, 30.40914292574], [-91.166737045027, 30.409138461307], [-91.166752970196, 30.409134481511], [-91.166769046494, 30.409130991738], [-91.166785256221, 30.409127995574], [-91.166801576474, 30.409125497501], [-91.166817989554, 30.409123501104], [-91.166834472563, 30.409122007256], [-91.166851006763, 30.409121018641], [-91.166867571335, 30.409120537036], [-91.166884144425, 30.409120562414], [-91.166900706257, 30.409121094749], [-91.166917237059, 30.409122133116], [-91.166933713936, 30.409123677484], [-91.166950118158, 30.409125724223], [-91.166966428913, 30.409128272403], [-91.166998687829, 30.409134856749], [-91.167478159096, 30.409281693187], [-91.167575231442, 30.409304086609], [-91.167669959457, 30.409319956723], [-91.167797740678, 30.409332398726], [-91.167937661964, 30.409334523266], [-91.168019621169, 30.409330220877], [-91.168091396032, 30.4093230524], [-91.168235964609, 30.409298714239], [-91.168579463142, 30.409214084786], [-91.168886000698, 30.409141230345], [-91.168950823413, 30.409128814322], [-91.169016151442, 30.409118576539], [-91.169081885889, 30.409110533109], [-91.16914793099, 30.40910469564], [-91.169280553461, 30.409099671464], [-91.169418035406, 30.409097704045], [-91.169509137203, 30.409097345177], [-91.169600155541, 30.409093948808], [-91.169690956148, 30.409087519284], [-91.16987136494, 30.40906560611], [-91.170057467378, 30.409026144166], [-91.170496917445, 30.408888886656], [-91.170519698042, 30.40888038907], [-91.17054210098, 30.408871170245], [-91.170564098138, 30.408861241874], [-91.17058565723, 30.408850618353], [-91.170606751172, 30.408839314079], [-91.170627349757, 30.408827343452], [-91.170647426939, 30.408814723577], [-91.170666953547, 30.408801471559], [-91.170685903534, 30.408787605408], [-91.17070425085, 30.408773143134], [-91.170721972566, 30.408758105458], [-91.170739042628, 30.408742512192], [-91.17077113815, 30.408709744485], [-91.170792127934, 30.408678108769], [-91.170814169024, 30.4086374751], [-91.170832280463, 30.408595402275], [-91.170846334809, 30.408552180612], [-91.17085575148, 30.408510259472], [-91.170870898014, 30.40844194483], [-91.170879343142, 30.408370421337], [-91.170880516017, 30.408298555134], [-91.170881701179, 30.408233810037], [-91.170891431824, 30.407838260344], [-91.170887326447, 30.407766756599], [-91.170892965356, 30.407700500553], [-91.170901347314, 30.407634462572], [-91.170912462809, 30.407568729247], [-91.170926296085, 30.40750338445], [-91.170942829307, 30.407438512956], [-91.170962042559, 30.407374197731], [-91.170983909682, 30.407310522636], [-91.171008402435, 30.407247570628], [-91.171035489461, 30.407185421051], [-91.171065136277, 30.407124155951], [-91.171097304244, 30.407063854662], [-91.17113195056, 30.407004593808], [-91.171169032428, 30.406946450013], [-91.171208500806, 30.406889498989], [-91.171250305615, 30.406833814645], [-91.171340702376, 30.406726530775], [-91.171456117548, 30.406620338334], [-91.171673192574, 30.406405525036], [-91.172259368879, 30.405834669252], [-91.172729952634, 30.405376379331], [-91.173524810749, 30.404640826679], [-91.173604040033, 30.404576441031], [-91.173800510486, 30.404393200353], [-91.174309884022, 30.403918122954], [-91.175015718655, 30.403259800989], [-91.174847924668, 30.403186364619], [-91.174771982818, 30.403044081539], [-91.174696041187, 30.40290179841], [-91.174450874742, 30.40268228875], [-91.173845689615, 30.402274060391], [-91.172987460849, 30.401593170466], [-91.172623940891, 30.401315438004], [-91.172544093371, 30.401254433529], [-91.172509656099, 30.401228122748], [-91.172331504935, 30.401092012196], [-91.172057386398, 30.400882579662], [-91.171246300396, 30.400262883905], [-91.171097344208, 30.40014863264], [-91.170476065877, 30.399672097606], [-91.170300653626, 30.399537550049], [-91.169503971805, 30.398926463455], [-91.168418054853, 30.398057196293], [-91.167682931465, 30.397468723021], [-91.16749546678, 30.397318661312], [-91.165881916274, 30.396027016009], [-91.165710998323, 30.39589019373], [-91.163304068375, 30.394049300724], [-91.161246450967, 30.392475571588], [-91.1612084796, 30.392449283863], [-91.16213928791, 30.39157876107], [-91.1622820801, 30.391444865071], [-91.162331718036, 30.391402420847], [-91.162383112792, 30.391361577386], [-91.162436193517, 30.39132238872], [-91.162490891441, 30.391284908883], [-91.162547132601, 30.39124918559], [-91.162604840951, 30.391215268354], [-91.162663941497, 30.39118320128], [-91.162724352999, 30.391153028464], [-91.162785996309, 30.391124788592], [-91.162848789156, 30.391098521249], [-91.162977485058, 30.391052038115], [-91.163043475881, 30.391031615856], [-91.170278892612, 30.388879368786], [-91.170933163937, 30.388678141305], [-91.171010719312, 30.388653912508], [-91.1711641412, 30.38860159084], [-91.171324362685, 30.388540475595], [-91.171635489305, 30.388401463194], [-91.17168237967, 30.388377689928], [-91.171823050635, 30.388306368227], [-91.172072011737, 30.388178165286], [-91.173746127658, 30.387469628391], [-91.174395837031, 30.387433944998], [-91.177096804973, 30.387732941271], [-91.181806010079, 30.388256681519], [-91.189502366857, 30.389112641863], [-91.190441995393, 30.389427662702], [-91.191610254686, 30.389827280551], [-91.19339894607, 30.390439098965], [-91.195053364415, 30.391004960586], [-91.195706871485, 30.391228472306], [-91.200364052104, 30.392830582644], [-91.20307221067, 30.393763846411], [-91.204901828774, 30.39438547261], [-91.207718082153, 30.395513042797], [-91.210965546826, 30.396813261003], [-91.211715652764, 30.39711359113], [-91.211903179696, 30.397188673218], [-91.212090706913, 30.397263755039], [-91.212465763236, 30.397413917878], [-91.211876492959, 30.398240230255], [-91.209074646494, 30.402168933687], [-91.207704080012, 30.404120023887], [-91.207543818058, 30.404379434322], [-91.205346652445, 30.407935759656], [-91.205263250208, 30.408068571927], [-91.205144587375, 30.408257532954], [-91.204393631043, 30.409453353942], [-91.202904229622, 30.412807097239], [-91.201330564751, 30.41671029517], [-91.200057417598, 30.420411304835], [-91.199554678228, 30.421987160303], [-91.199541844125, 30.422041109169], [-91.19798962513, 30.428565455267], [-91.197942782729, 30.428823429441], [-91.196870964971, 30.434725816985], [-91.196412775387, 30.437128792817], [-91.196093839543, 30.438788469777], [-91.195942286423, 30.43975726479], [-91.195942762428, 30.439809012257], [-91.195955669876, 30.441214502711], [-91.196014112814, 30.443798893477], [-91.196254017042, 30.454406099451], [-91.196350071947, 30.458652495434], [-91.196363876027, 30.459344680724], [-91.196495255805, 30.465932352787], [-91.196862088969, 30.483286629108], [-91.197170620609, 30.497878005489], [-91.197190577549, 30.498833023653], [-91.197210535914, 30.499788042439], [-91.197337209828, 30.505849279431], [-91.197411911274, 30.506851830659], [-91.197424916474, 30.50702635802], [-91.197449386013, 30.507206675756], [-91.197518372564, 30.507715021988], [-91.197615277131, 30.508619336348], [-91.197898290847, 30.510810209444], [-91.198396510858, 30.512907659761], [-91.199140104245, 30.515241444063], [-91.200044525411, 30.517045361105], [-91.201061526088, 30.518478083096], [-91.203347259289, 30.52051943675], [-91.205367139746, 30.521533718178], [-91.206853222745, 30.521997918992], [-91.207905156441, 30.522194400653], [-91.208378808445, 30.522152041468], [-91.209791785013, 30.522025676964], [-91.210562223359, 30.521956767546], [-91.211529366388, 30.52187025794], [-91.215124907204, 30.520836267629], [-91.215767955005, 30.520622253184], [-91.22368104958, 30.517904512473], [-91.236483836412, 30.513252306533], [-91.246470687926, 30.510125640498], [-91.246554094728, 30.510098830917], [-91.254267788959, 30.507619128334], [-91.263272959868, 30.505138961814], [-91.267684593358, 30.504120966166], [-91.271521843121, 30.503547284237], [-91.276386010355, 30.503366343511], [-91.279165098211, 30.504047682277], [-91.280886571639, 30.505173274556], [-91.282245211148, 30.506926555304], [-91.282697612114, 30.508470193703], [-91.282545516083, 30.510484487038], [-91.282091135659, 30.512760265306], [-91.281123422062, 30.514381829884], [-91.2791884568, 30.516604682739], [-91.276558402586, 30.518879530692], [-91.274593511303, 30.52029133087], [-91.267701879069, 30.52366277227], [-91.263742187649, 30.525335007248], [-91.252557747783, 30.529880540071], [-91.24826459295, 30.53217995118], [-91.246359476605, 30.533591365118], [-91.244242288932, 30.535525811903], [-91.241670311531, 30.538951040607], [-91.240398717726, 30.541356888058], [-91.239580247056, 30.543946165176], [-91.239246121308, 30.545698656533], [-91.239153808617, 30.547425157929], [-91.239786113521, 30.549989295057], [-91.24044916922, 30.552255930057], [-91.240805115889, 30.553241877792], [-91.241511440723, 30.554905221534], [-91.244213177673, 30.558648480432], [-91.248053099302, 30.562118923194], [-91.249972417903, 30.56359221517], [-91.250706133584, 30.564155404021], [-91.25338927376, 30.565886114506], [-91.253473258713, 30.56594028522], [-91.255356056172, 30.567046323819], [-91.257921690586, 30.56801050943], [-91.259880926729, 30.568449201752], [-91.262623980487, 30.568932044064], [-91.265999237355, 30.569338574263], [-91.268941374734, 30.569759567714], [-91.272673891943, 30.570293558856], [-91.279866926913, 30.571434392296], [-91.283836497724, 30.571950104147], [-91.29073946273, 30.571996263441], [-91.297955859209, 30.571962541652], [-91.301650238953, 30.571966504356], [-91.303293779841, 30.572054404574], [-91.305329210095, 30.572295525841], [-91.307389879971, 30.572681355441], [-91.309716091438, 30.573116861646], [-91.310563090274, 30.573467081293], [-91.311410095092, 30.573817296384], [-91.312813240463, 30.57495525367], [-91.313550595261, 30.576574600004], [-91.314013830978, 30.577591909517], [-91.315947425346, 30.582547869839], [-91.316061024098, 30.583685613846], [-91.315301680168, 30.587448768971], [-91.313947931493, 30.591310286825], [-91.312518452392, 30.593979349674], [-91.31091196075, 30.596167020201], [-91.309065177721, 30.598124892643], [-91.307294337759, 30.599557651146], [-91.305030051347, 30.601624778483], [-91.301424779896, 30.604687056839], [-91.299678817737, 30.606677636712], [-91.298337447348, 30.608832393935], [-91.297645712609, 30.610298553355], [-91.297135000592, 30.611380999403], [-91.294957298975, 30.617244008377], [-91.293222588833, 30.621816236112], [-91.291614553237, 30.625589886544], [-91.290867196319, 30.627985409829], [-91.291156664167, 30.631464274783], [-91.291454931344, 30.633603033675], [-91.29153503337, 30.634177396295], [-91.292621713668, 30.63730643502], [-91.292823661417, 30.637767499631], [-91.293632881342, 30.639614976705], [-91.294871888015, 30.641770422538], [-91.300315158704, 30.646525608128], [-91.299694642225, 30.647234396265], [-91.297663711176, 30.649554147549], [-91.296665578382, 30.650694173441], [-91.296598765645, 30.650783509004], [-91.295777898076, 30.65192203158], [-91.295188481196, 30.652739796159], [-91.294916440859, 30.653117069092], [-91.293610251773, 30.655041404078], [-91.293137364974, 30.656615784485], [-91.293044636631, 30.656924777682], [-91.292885789131, 30.657454089151], [-91.292767163886, 30.657851764115], [-91.292648537687, 30.658249438918], [-91.292667841015, 30.659645428954], [-91.292616650804, 30.661669049343], [-91.292607225815, 30.662041644044], [-91.292443937116, 30.662758658551], [-91.292341044579, 30.662907643387], [-91.291409680299, 30.664256213511], [-91.289807609451, 30.667389516764], [-91.289683608485, 30.667632025829], [-91.289144055521, 30.673056105452], [-91.288659925115, 30.677922507501], [-91.270578975026, 30.68076333131], [-91.26964248251, 30.683090328623], [-91.269186548217, 30.684341177417], [-91.267880680892, 30.686090150884], [-91.268364726893, 30.689108998836], [-91.268255907659, 30.68923980689], [-91.267527398405, 30.690115523591], [-91.267430048245, 30.690599528251], [-91.267584625494, 30.691366667022], [-91.267503229902, 30.691776962045], [-91.26742023154, 30.692204439381], [-91.267140036483, 30.693752339794], [-91.267975444927, 30.694502458969], [-91.267888646159, 30.694662736821], [-91.267861497754, 30.694823901881], [-91.267278201, 30.695281716776], [-91.266191450344, 30.695716422754], [-91.266050556397, 30.695886808665], [-91.265740108375, 30.696265197951], [-91.265288862945, 30.697823658446], [-91.264863671342, 30.698487227316], [-91.264856592709, 30.698531857538], [-91.264849513026, 30.698576486857], [-91.264484786595, 30.698687384318], [-91.264479774125, 30.698689043208], [-91.264474764782, 30.698690708412], [-91.264469758565, 30.698692380834], [-91.264464754432, 30.698694058669], [-91.264459753425, 30.69869574282], [-91.264454755546, 30.698697433286], [-91.264449759749, 30.698699130066], [-91.26444476708, 30.698700833163], [-91.264439777537, 30.698702542574], [-91.264434791121, 30.698704258302], [-91.264429807832, 30.698705980344], [-91.264424826626, 30.698707708702], [-91.264419848547, 30.698709443375], [-91.264414873595, 30.698711184363], [-91.264409901769, 30.698712931667], [-91.264404932027, 30.698714685286], [-91.264399966455, 30.698716445221], [-91.264395002967, 30.698718210569], [-91.264390042605, 30.698719983135], [-91.264385085371, 30.698721761113], [-91.264380131263, 30.69872354631], [-91.264375180282, 30.698725336919], [-91.264370232428, 30.698727133845], [-91.264365286657, 30.698728937987], [-91.264360345056, 30.698730747543], [-91.264355405539, 30.698732563414], [-91.264350470193, 30.698734385601], [-91.26434553693, 30.698736213201], [-91.264340607837, 30.698738048019], [-91.264335680828, 30.698739889152], [-91.264330756945, 30.698741735698], [-91.264325837234, 30.698743588561], [-91.264320919604, 30.69874544864], [-91.264316005102, 30.698747314133], [-91.264311094771, 30.698749185942], [-91.264306186524, 30.698751063164], [-91.264301281403, 30.698752947603], [-91.264296380452, 30.698754838358], [-91.264291481585, 30.698756734526], [-91.264286586889, 30.698758637011], [-91.264281695319, 30.69876054581], [-91.264276806876, 30.698762460926], [-91.26427192156, 30.698764382356], [-91.264267039372, 30.6987663092], [-91.264262160311, 30.69876824236], [-91.264257284375, 30.698770182737], [-91.264252412612, 30.698772127626], [-91.264247542931, 30.698774079732], [-91.26424267742, 30.698776038154], [-91.264237815037, 30.69877800199], [-91.264232955781, 30.698779972141], [-91.264228099651, 30.698781948607], [-91.264223247693, 30.69878393139], [-91.264218398861, 30.698785919586], [-91.264213553156, 30.698787914999], [-91.264208710579, 30.698789915826], [-91.264203871128, 30.698791922067], [-91.264199035848, 30.698793935525], [-91.264194203696, 30.698795954397], [-91.26418937467, 30.698797979585], [-91.264184549814, 30.698800011088], [-91.264179728086, 30.698802048907], [-91.264174909485, 30.69880409214], [-91.26417009401, 30.698806141687], [-91.264165282707, 30.698808197551], [-91.264160474531, 30.698810258829], [-91.264155670525, 30.698812326422], [-91.264150869646, 30.698814400331], [-91.264146071894, 30.698816480556], [-91.26414127727, 30.698818566193], [-91.264136486816, 30.698820658147], [-91.26413169949, 30.698822755515], [-91.264126916333, 30.6988248601], [-91.264122136304, 30.698826970099], [-91.264117360446, 30.698829085512], [-91.264112587715, 30.698831208143], [-91.26410781811, 30.698833336187], [-91.264103052677, 30.698835470546], [-91.264098291415, 30.69883761032], [-91.264093532235, 30.698839756409], [-91.264088778271, 30.698841907913], [-91.264084026389, 30.698844066633], [-91.264079279722, 30.698846230768], [-91.264074535139, 30.698848400316], [-91.26406979577, 30.698850576181], [-91.264065059528, 30.698852758361], [-91.264060326413, 30.698854946857], [-91.264055597469, 30.698857140766], [-91.264050871652, 30.698859340089], [-91.264046150007, 30.698861545728], [-91.264041432531, 30.698863757684], [-91.264036718183, 30.698865975954], [-91.264032008005, 30.698868199639], [-91.264027300955, 30.698870428737], [-91.264022598076, 30.698872664151], [-91.264017899367, 30.698874905881], [-91.264013203786, 30.698877153025], [-91.264008512375, 30.698879406485], [-91.264003825136, 30.698881665359], [-91.263999141023, 30.698883930548], [-91.263994461081, 30.698886202053], [-91.263989784267, 30.698888478972], [-91.263985112667, 30.698890761306], [-91.263980444194, 30.698893049955], [-91.263975778848, 30.698895344919], [-91.263971118717, 30.698897645298], [-91.263966461713, 30.698899951993], [-91.26396180888, 30.698902264101], [-91.263957159175, 30.698904581623], [-91.263952514684, 30.698906905462], [-91.263947873319, 30.698909235616], [-91.263943236126, 30.698911571184], [-91.26393860206, 30.698913913068], [-91.263933973209, 30.698916259464], [-91.263929372542, 30.698918604071], [-91.263924776047, 30.698920954092], [-91.263920182679, 30.698923309526], [-91.263915594525, 30.698925670376], [-91.263911009499, 30.69892803754], [-91.263906428643, 30.698930411021], [-91.263901851959, 30.698932789915], [-91.263897279445, 30.698935174224], [-91.263892711103, 30.698937564849], [-91.263888146931, 30.698939960887], [-91.263883585886, 30.698942363242], [-91.263879030057, 30.698944771011], [-91.263874477354, 30.698947184193], [-91.263869928823, 30.698949603691], [-91.263865384462, 30.698952028604], [-91.263860845317, 30.698954458931], [-91.263856309298, 30.698956895573], [-91.26385177745, 30.698959338532], [-91.263847249774, 30.698961786003], [-91.263842726268, 30.69896423979], [-91.263838206934, 30.69896669899], [-91.26383369177, 30.698969164507], [-91.263829180777, 30.698971635438], [-91.263824674999, 30.698974111784], [-91.263820172349, 30.698976594445], [-91.263815673869, 30.69897908252], [-91.26381117956, 30.698981576009], [-91.263806689423, 30.698984074912], [-91.2638022045, 30.698986580132], [-91.263797722705, 30.698989090765], [-91.263793246124, 30.698991607715], [-91.263788772671, 30.698994129177], [-91.263784304432, 30.698996656955], [-91.263779840365, 30.698999190147], [-91.263775380468, 30.699001729655], [-91.263770924742, 30.699004274577], [-91.263766473188, 30.699006824914], [-91.263762026848, 30.699009380665], [-91.263757583636, 30.699011941829], [-91.263753145639, 30.69901450931], [-91.263748711812, 30.699017082205], [-91.263744282157, 30.699019660514], [-91.263739856673, 30.699022244238], [-91.263735436403, 30.699024834277], [-91.263731019261, 30.699027429731], [-91.263726607335, 30.699030029697], [-91.263722199578, 30.699032636881], [-91.263717797037, 30.699035248577], [-91.263713397623, 30.699037865688], [-91.263709003424, 30.699040489114], [-91.26370461444, 30.699043117956], [-91.263700228583, 30.699045752211], [-91.263695847941, 30.69904839188], [-91.263691471471, 30.699051036964], [-91.26368709917, 30.699053688364], [-91.263682732086, 30.699056344276], [-91.263678369172, 30.699059006504], [-91.26367401043, 30.699061673245], [-91.263669656903, 30.699064346302], [-91.263665307546, 30.699067024773], [-91.263660962361, 30.699069708658], [-91.26365662239, 30.69907239886], [-91.263652286591, 30.699075093574], [-91.263647956007, 30.699077793702], [-91.26364362855, 30.699080500146], [-91.263639307352, 30.699083211104], [-91.263634989281, 30.699085928376], [-91.263630677469, 30.699088650162], [-91.263626368784, 30.699091378264], [-91.263622065314, 30.69909411178], [-91.26361776706, 30.699096849808], [-91.263613471933, 30.699099594153], [-91.263609183064, 30.699102343912], [-91.263604898367, 30.699105099085], [-91.263600617841, 30.699107858771], [-91.26359634253, 30.699110624773], [-91.26359207139, 30.699113396189], [-91.263587805465, 30.69911617302], [-91.263583543711, 30.699118954363], [-91.263579287172, 30.699121742023], [-91.263575035849, 30.699124535097], [-91.263570787652, 30.699127333585], [-91.263566545715, 30.699130136586], [-91.263562307949, 30.699132945903], [-91.263558075398, 30.699135759732], [-91.263553847017, 30.699138579878], [-91.263549623853, 30.699141404536], [-91.263545404859, 30.699144234609], [-91.263041056057, 30.699479342327], [-91.262882335605, 30.699589381051], [-91.261349120457, 30.700652332126], [-91.260924013271, 30.700925061379], [-91.260508871555, 30.701170486562], [-91.260118771649, 30.701381808683], [-91.259639869809, 30.701626752103], [-91.259372357354, 30.701745248164], [-91.258992649437, 30.701913440738], [-91.258262403044, 30.702223730633], [-91.257866194595, 30.702389012476], [-91.257643181698, 30.702486548845], [-91.257236514926, 30.702668134643], [-91.257231234368, 30.702670495762], [-91.25722595798, 30.702672863198], [-91.257220684719, 30.702675236047], [-91.257215414585, 30.702677614309], [-91.257210148622, 30.702679998888], [-91.257204885785, 30.702682389783], [-91.25719962712, 30.70268478519], [-91.25719437158, 30.702687187814], [-91.257189119169, 30.70268959495], [-91.257183870927, 30.702692008402], [-91.257178625813, 30.70269442817], [-91.257173384869, 30.70269685245], [-91.257168147052, 30.702699283045], [-91.257162912362, 30.702701719957], [-91.257157681843, 30.702704162282], [-91.25715245445, 30.702706610021], [-91.257147231228, 30.702709064076], [-91.257142011133, 30.702711523545], [-91.257136795209, 30.702713988428], [-91.257131582412, 30.702716459627], [-91.257126373785, 30.702718936239], [-91.257121168286, 30.702721418266], [-91.257115966957, 30.702723906608], [-91.257110768755, 30.702726400365], [-91.257105574724, 30.702728899535], [-91.257100383819, 30.702731405021], [-91.257095197085, 30.702733915921], [-91.257090013479, 30.702736432235], [-91.257084834043, 30.702738954865], [-91.257079658777, 30.70274148291], [-91.257074486639, 30.702744016368], [-91.257069318671, 30.702746556142], [-91.25706415383, 30.70274910133], [-91.25705899316, 30.702751651932], [-91.257053835618, 30.702754207947], [-91.257048682245, 30.702756770279], [-91.257043533044, 30.702759338025], [-91.257038386969, 30.702761911185], [-91.257033245065, 30.70276449066], [-91.257028107333, 30.702767074649], [-91.257022972727, 30.702769664952], [-91.257017842291, 30.702772261572], [-91.257012594893, 30.702774923971], [-91.257007350621, 30.702777593587], [-91.257002111563, 30.702780268618], [-91.256996875633, 30.702782949063], [-91.256991643873, 30.702785635823], [-91.256986416283, 30.702788327998], [-91.256981192865, 30.70279102649], [-91.256975973616, 30.702793731297], [-91.256970758538, 30.702796441519], [-91.256965547631, 30.702799157155], [-91.256960339851, 30.702801879106], [-91.256955137284, 30.702804607375], [-91.256949937846, 30.702807340154], [-91.256944743621, 30.702810080153], [-91.256939552523, 30.702812825566], [-91.256934365596, 30.702815576392], [-91.256929183883, 30.702818333536], [-91.256924005297, 30.702821096093], [-91.256918831925, 30.702823864966], [-91.25691366168, 30.702826639254], [-91.256908495605, 30.702829419858], [-91.256903334746, 30.702832205876], [-91.256898177013, 30.702834997308], [-91.256893024494, 30.702837795057], [-91.256887875102, 30.702840599122], [-91.256882730925, 30.702843407699], [-91.256877589875, 30.702846222592], [-91.256872454039, 30.702849043802], [-91.256867322373, 30.702851870426], [-91.256862194879, 30.702854702464], [-91.256857071555, 30.702857540818], [-91.256851952401, 30.702860384587], [-91.256846837418, 30.702863234672], [-91.256841726606, 30.702866090171], [-91.256836621009, 30.702868951085], [-91.256831518538, 30.702871818315], [-91.256826421282, 30.702874690959], [-91.256821328197, 30.702877569018], [-91.256816239282, 30.702880453393], [-91.256811154538, 30.702883343182], [-91.256806073964, 30.702886238385], [-91.256800998605, 30.702889139905], [-91.256795927417, 30.70289204684], [-91.2567908604, 30.702894959188], [-91.256785797553, 30.702897877853], [-91.256780738877, 30.702900801932], [-91.256775685415, 30.702903731426], [-91.256770636125, 30.702906666334], [-91.256765591005, 30.702909607559], [-91.256760550055, 30.702912554197], [-91.25675551432, 30.702915507153], [-91.256750482756, 30.702918465522], [-91.256745455363, 30.702921429306], [-91.256740433184, 30.702924398505], [-91.256735414132, 30.702927373117], [-91.256730400295, 30.702930354047], [-91.256725391672, 30.702933340391], [-91.256720386177, 30.702936332148], [-91.256715385895, 30.702939330223], [-91.256710390829, 30.70294233281], [-91.256705399933, 30.702945341714], [-91.256700413207, 30.702948356934], [-91.256695430653, 30.702951376666], [-91.256690453314, 30.702954401813], [-91.256685480145, 30.702957433276], [-91.256680511147, 30.702960470153], [-91.256675547363, 30.702963512445], [-91.256670588794, 30.702966561054], [-91.256665633352, 30.702969614175], [-91.256660684169, 30.702972673613], [-91.256655738112, 30.702975738465], [-91.25665079727, 30.702978808732], [-91.256645861643, 30.702981884413], [-91.256640930187, 30.702984965509], [-91.256636002901, 30.702988052921], [-91.25663108083, 30.702991144846], [-91.25662616293, 30.702994243087], [-91.256621250245, 30.702997346743], [-91.25661634173, 30.703000455813], [-91.25661143843, 30.703003570298], [-91.256606539301, 30.703006690197], [-91.256601645386, 30.703009816413], [-91.256596755643, 30.703012947141], [-91.256591871113, 30.703016084187], [-91.256586990756, 30.703019225744], [-91.256582115612, 30.703022373618], [-91.256577245683, 30.703025526907], [-91.256572379925, 30.703028685611], [-91.256567518338, 30.703031849728], [-91.256562661966, 30.703035019261], [-91.256557810808, 30.703038194208], [-91.256552963822, 30.70304137457], [-91.25654812205, 30.703044560346], [-91.256543285493, 30.703047751538], [-91.256538453107, 30.703050948143], [-91.256533625935, 30.703054150164], [-91.256528802934, 30.703057357598], [-91.256523985148, 30.70306057135], [-91.256519172577, 30.703063789614], [-91.256514364177, 30.703067013293], [-91.256509560991, 30.703070242386], [-91.256504763021, 30.703073476895], [-91.25649996922, 30.70307671772], [-91.256495180635, 30.703079963057], [-91.256490397265, 30.703083213809], [-91.256485618065, 30.703086469976], [-91.256480844081, 30.703089731557], [-91.256476075311, 30.703092998554], [-91.256471311756, 30.703096270965], [-91.256466552372, 30.703099547888], [-91.256461798203, 30.703102831129], [-91.256457049248, 30.703106119784], [-91.256452304464, 30.703109413853], [-91.25644756594, 30.703112712436], [-91.256442831586, 30.703116016434], [-91.256438102446, 30.703119326748], [-91.256433377478, 30.703122641574], [-91.256428658769, 30.703125961816], [-91.25642394423, 30.703129287472], [-91.256419234907, 30.703132618543], [-91.256320850733, 30.703202299787], [-91.256064755036, 30.70338367796], [-91.256062396702, 30.703385352507], [-91.256060042538, 30.703387032468], [-91.25605769359, 30.703388717844], [-91.256055349857, 30.703390407733], [-91.256053010296, 30.703392103037], [-91.256050675949, 30.703393803756], [-91.256048346818, 30.703395508987], [-91.256046022902, 30.703397219634], [-91.256043703157, 30.703398935695], [-91.256041388628, 30.703400656269], [-91.256039079315, 30.703402381357], [-91.256036775216, 30.703404111859], [-91.256034476333, 30.703405847776], [-91.256032181621, 30.703407588205], [-91.256029893168, 30.703409334051], [-91.256027608887, 30.703411084408], [-91.256025329821, 30.703412840181], [-91.256023055971, 30.703414600467], [-91.256020787335, 30.703416366167], [-91.256018523915, 30.703418136381], [-91.256016265711, 30.70341991201], [-91.256014012722, 30.703421692151], [-91.256011764948, 30.703423476806], [-91.256009521346, 30.703425266875], [-91.256007284003, 30.703427061458], [-91.256005051875, 30.703428861456], [-91.256002824963, 30.703430665966], [-91.256000603267, 30.70343247499], [-91.255998386785, 30.703434289429], [-91.25599617552, 30.703436108381], [-91.255993969469, 30.703437932748], [-91.255991768634, 30.703439760726], [-91.255989573015, 30.703441594118], [-91.255987382611, 30.703443432024], [-91.255985198466, 30.703445275346], [-91.255983019537, 30.70344712318], [-91.255980845823, 30.703448975528], [-91.255978677326, 30.703450832389], [-91.255976514043, 30.703452693762], [-91.255974355976, 30.703454560551], [-91.255972204168, 30.703456431853], [-91.255970057576, 30.703458307668], [-91.2559679162, 30.703460187997], [-91.255965780039, 30.703462072838], [-91.255963650137, 30.703463963095], [-91.255961525452, 30.703465856963], [-91.255959405981, 30.703467756246], [-91.255957291727, 30.703469660042], [-91.255955183731, 30.703471568352], [-91.255953080952, 30.703473481174], [-91.255950984432, 30.703475398511], [-91.255948893127, 30.70347732036], [-91.255592533874, 30.703805612261], [-91.255588563284, 30.70380927477], [-91.255584598953, 30.70381294089], [-91.255580639837, 30.703816612425], [-91.255576685937, 30.703820288473], [-91.255572737252, 30.703823968132], [-91.255568794827, 30.703827653207], [-91.255564857617, 30.703831341892], [-91.255560926666, 30.703835035994], [-91.255556999888, 30.703838733705], [-91.255553080412, 30.703842435931], [-91.255549165109, 30.703846142669], [-91.255545256064, 30.70384985392], [-91.255541352235, 30.703853569685], [-91.255537454666, 30.703857289963], [-91.255533562312, 30.703861013852], [-91.255529676217, 30.703864743156], [-91.255525794295, 30.703868476071], [-91.255521919676, 30.7038722135], [-91.255518049228, 30.703875955442], [-91.25551418504, 30.703879701897], [-91.255510327111, 30.703883451963], [-91.255506474398, 30.703887207445], [-91.2555026269, 30.703890966537], [-91.255498785662, 30.703894730144], [-91.25549494964, 30.703898498263], [-91.255491119877, 30.703902269993], [-91.255487295329, 30.703906047139], [-91.255483475998, 30.703909827895], [-91.255479662925, 30.703913613165], [-91.255475856113, 30.703917402047], [-91.255472054516, 30.703921196343], [-91.255468258134, 30.703924994251], [-91.255464468012, 30.703928796672], [-91.25546068415, 30.703932602705], [-91.255456905503, 30.703936414153], [-91.255453132072, 30.703940229211], [-91.255449365945, 30.703944047882], [-91.255445603989, 30.703947871967], [-91.255128271914, 30.704306054391], [-91.254392173627, 30.705076488334], [-91.254014063015, 30.705088938546], [-91.251918201223, 30.705104269712], [-91.247676789852, 30.705277831069], [-91.247531494263, 30.705284457054], [-91.242629783419, 30.705463269481], [-91.242335757868, 30.705474039097], [-91.232189978262, 30.705805683868], [-91.193854884363, 30.707220239783], [-91.190030941563, 30.707343985446]]]]}}]}